{
"type": "FeatureCollection",
"name": "fatih_boundary",
"crs": { "type": "name", "properties": { "name": "urn:ogc:def:crs:OGC:1.3:CRS84" } },
"features": [
{ "type": "Feature", "properties": { "osm_relation_id": 1766104, "name": "Fatih, İstanbul, Marmara Bölgesi, Türkiye" }, "geometry": { "type": "Polygon", "coordinates": [ [ [ 28.919882, 40.9889772 ], [ 28.9199066, 40.9888934 ], [ 28.9199991, 40.9888888 ], [ 28.9200052, 40.9888376 ], [ 28.92011, 40.9888283 ], [ 28.9201531, 40.9887213 ], [ 28.9199066, 40.9883492 ], [ 28.9199245, 40.987921 ], [ 28.9200758, 40.9879 ], [ 28.9213203, 40.9878514 ], [ 28.9222645, 40.9876732 ], [ 28.9227473, 40.9876327 ], [ 28.9232515, 40.9876489 ], [ 28.9234109, 40.987661 ], [ 28.9238398, 40.9877495 ], [ 28.9247335, 40.9880625 ], [ 28.9250671, 40.9882219 ], [ 28.9253411, 40.9884466 ], [ 28.9278438, 40.9913796 ], [ 28.9279508, 40.9914066 ], [ 28.9287186, 40.9909944 ], [ 28.9294262, 40.9908643 ], [ 28.929591, 40.9909443 ], [ 28.9303002, 40.9923306 ], [ 28.9302918, 40.9925233 ], [ 28.9301473, 40.9927495 ], [ 28.9299778, 40.9927924 ], [ 28.9298783, 40.9927126 ], [ 28.9299774, 40.9924643 ], [ 28.9299891, 40.9924017 ], [ 28.9295504, 40.9915243 ], [ 28.9293545, 40.9911617 ], [ 28.9292796, 40.9911011 ], [ 28.9291558, 40.9911061 ], [ 28.928598, 40.9912894 ], [ 28.9280372, 40.9916432 ], [ 28.9279473, 40.9917755 ], [ 28.929031, 40.9928852 ], [ 28.9291141, 40.992919 ], [ 28.9292527, 40.9928362 ], [ 28.929487, 40.9930856 ], [ 28.9295746, 40.993032 ], [ 28.9296776, 40.9931126 ], [ 28.9295768, 40.9932894 ], [ 28.9296128, 40.9935525 ], [ 28.9312994, 40.9945114 ], [ 28.9313709, 40.994552 ], [ 28.9316936, 40.9946799 ], [ 28.9317586, 40.9947057 ], [ 28.931956, 40.9948611 ], [ 28.932315, 40.9952446 ], [ 28.9331299, 40.9962505 ], [ 28.9332114, 40.9966042 ], [ 28.9340843, 40.998603 ], [ 28.9345888, 40.9994116 ], [ 28.9350211, 40.9998484 ], [ 28.9355619, 41.0002385 ], [ 28.9360855, 41.0004235 ], [ 28.9362437, 41.0005126 ], [ 28.9363877, 41.0007921 ], [ 28.9368102, 41.0010883 ], [ 28.9369102, 41.0011317 ], [ 28.9371837, 41.0012678 ], [ 28.9376349, 41.0013129 ], [ 28.937785, 41.0013076 ], [ 28.9378913, 41.001217 ], [ 28.9381631, 41.001249 ], [ 28.9383302, 41.0012122 ], [ 28.9385225, 41.0012723 ], [ 28.9385832, 41.0013781 ], [ 28.9385029, 41.0015529 ], [ 28.9385549, 41.0016336 ], [ 28.9387601, 41.0017218 ], [ 28.9388205, 41.0016702 ], [ 28.9388948, 41.001583 ], [ 28.9389494, 41.001492 ], [ 28.9389839, 41.0013881 ], [ 28.9389833, 41.0012889 ], [ 28.9389455, 41.0012049 ], [ 28.9388639, 41.0011368 ], [ 28.9380206, 41.0007563 ], [ 28.937989, 41.0007118 ], [ 28.9379863, 41.0006263 ], [ 28.937978, 41.0003645 ], [ 28.9380479, 41.0000195 ], [ 28.9381589, 40.9997165 ], [ 28.9383236, 40.9993945 ], [ 28.9385226, 40.9991098 ], [ 28.9387649, 40.9988213 ], [ 28.9390784, 40.9985348 ], [ 28.9394387, 40.9982607 ], [ 28.9398149, 40.9980139 ], [ 28.9402707, 40.9977416 ], [ 28.9407734, 40.9974773 ], [ 28.941296, 40.997229 ], [ 28.9417572, 40.9970445 ], [ 28.9421, 40.9969049 ], [ 28.9428347, 40.9966772 ], [ 28.9431984, 40.9965854 ], [ 28.9437272, 40.9964619 ], [ 28.9443147, 40.9963503 ], [ 28.9449427, 40.9962668 ], [ 28.9455552, 40.9962221 ], [ 28.9461377, 40.9962017 ], [ 28.9467872, 40.9962117 ], [ 28.9474042, 40.9962443 ], [ 28.9480318, 40.9963078 ], [ 28.948632, 40.9963976 ], [ 28.9492013, 40.9965081 ], [ 28.9498037, 40.9966575 ], [ 28.9503847, 40.9968297 ], [ 28.9509356, 40.9970245 ], [ 28.9514561, 40.9972372 ], [ 28.9519476, 40.9974632 ], [ 28.9523867, 40.9976936 ], [ 28.9527749, 40.9979254 ], [ 28.9531355, 40.9981549 ], [ 28.9534297, 40.9983668 ], [ 28.9546545, 40.9983481 ], [ 28.9550131, 40.9983089 ], [ 28.9554241, 40.9982979 ], [ 28.9602822, 40.9982245 ], [ 28.9607202, 40.9981459 ], [ 28.9608311, 40.9981333 ], [ 28.9609175, 40.9981497 ], [ 28.9610048, 40.998198 ], [ 28.9610514, 40.9982554 ], [ 28.9610692, 40.9983212 ], [ 28.9610656, 40.9983593 ], [ 28.9610355, 40.9984226 ], [ 28.9609421, 40.9984937 ], [ 28.9608585, 40.998517 ], [ 28.9607694, 40.9985174 ], [ 28.9606821, 40.9984932 ], [ 28.9602874, 40.9984188 ], [ 28.9598595, 40.9984246 ], [ 28.9598644, 40.9986068 ], [ 28.9547749, 40.9986844 ], [ 28.9537328, 40.9992127 ], [ 28.9533822, 41.0000294 ], [ 28.953791, 41.0001484 ], [ 28.9537629, 41.0002142 ], [ 28.9533486, 41.0001076 ], [ 28.9531825, 41.0004946 ], [ 28.9535916, 41.0006223 ], [ 28.9535575, 41.0006924 ], [ 28.9531455, 41.0005808 ], [ 28.9528696, 41.0012236 ], [ 28.9537443, 41.0021298 ], [ 28.9540639, 41.0021701 ], [ 28.9541898, 41.0016092 ], [ 28.9542622, 41.001627 ], [ 28.9541738, 41.0019835 ], [ 28.9541165, 41.0022146 ], [ 28.9554778, 41.0023818 ], [ 28.9557649, 41.0021876 ], [ 28.9554561, 41.0019007 ], [ 28.955548, 41.0018477 ], [ 28.9556981, 41.0019861 ], [ 28.9558633, 41.0021384 ], [ 28.9564125, 41.0017933 ], [ 28.9561012, 41.0015015 ], [ 28.956168, 41.0014579 ], [ 28.9562205, 41.0014236 ], [ 28.9570334, 41.0022321 ], [ 28.9571226, 41.0021747 ], [ 28.9571416, 41.0021625 ], [ 28.9573137, 41.0020517 ], [ 28.9584351, 41.0018663 ], [ 28.9582141, 41.0012967 ], [ 28.9581472, 41.0011218 ], [ 28.9581571, 41.0010817 ], [ 28.9581975, 41.0010632 ], [ 28.9582214, 41.0010664 ], [ 28.9582461, 41.0010903 ], [ 28.9583233, 41.0013061 ], [ 28.9585377, 41.0018411 ], [ 28.9589005, 41.0017648 ], [ 28.9595159, 41.0016147 ], [ 28.9595521, 41.0016059 ], [ 28.9595754, 41.0016609 ], [ 28.9600847, 41.0015117 ], [ 28.9612476, 41.0013002 ], [ 28.9615921, 41.0010833 ], [ 28.9618559, 41.0009999 ], [ 28.9621977, 41.0009448 ], [ 28.9652375, 41.0008819 ], [ 28.9654464, 41.0009026 ], [ 28.9654895, 41.0009688 ], [ 28.9654593, 41.0010251 ], [ 28.965316, 41.0010278 ], [ 28.9653088, 41.0009869 ], [ 28.9640238, 41.0010139 ], [ 28.9640196, 41.001066 ], [ 28.9622425, 41.0011155 ], [ 28.9622502, 41.0010804 ], [ 28.96205, 41.0010977 ], [ 28.9618234, 41.0011515 ], [ 28.9616163, 41.0012345 ], [ 28.9613466, 41.001433 ], [ 28.9608645, 41.0020846 ], [ 28.9614559, 41.0022884 ], [ 28.9614663, 41.0022884 ], [ 28.9614656, 41.00197 ], [ 28.9615364, 41.0019699 ], [ 28.9615371, 41.0022883 ], [ 28.9621558, 41.0022875 ], [ 28.9621578, 41.0019262 ], [ 28.9622352, 41.0019264 ], [ 28.9622333, 41.0022877 ], [ 28.9628039, 41.002291 ], [ 28.9628149, 41.00197 ], [ 28.9628838, 41.0019723 ], [ 28.9628868, 41.0022998 ], [ 28.9635151, 41.0022965 ], [ 28.9636102, 41.002296 ], [ 28.9639697, 41.0021458 ], [ 28.964141, 41.0021392 ], [ 28.9642783, 41.0022697 ], [ 28.96457, 41.0023163 ], [ 28.964943, 41.0023348 ], [ 28.9671837, 41.0021323 ], [ 28.9682384, 41.0020193 ], [ 28.9685655, 41.0020101 ], [ 28.9688149, 41.0019928 ], [ 28.9691569, 41.001901 ], [ 28.9708226, 41.0014437 ], [ 28.9730812, 41.000984 ], [ 28.9731913, 41.0010407 ], [ 28.9753215, 41.0009723 ], [ 28.975374, 41.001056 ], [ 28.9753676, 41.0011924 ], [ 28.9761719, 41.0011585 ], [ 28.9767655, 41.0011334 ], [ 28.9783348, 41.0010699 ], [ 28.9786765, 41.0012079 ], [ 28.97862, 41.0012347 ], [ 28.9786159, 41.0013277 ], [ 28.9779215, 41.0014153 ], [ 28.9777317, 41.0014368 ], [ 28.9775963, 41.0014639 ], [ 28.9775935, 41.0014808 ], [ 28.9775924, 41.0015015 ], [ 28.9775912, 41.0015543 ], [ 28.9775895, 41.0016273 ], [ 28.9776073, 41.0017655 ], [ 28.9776515, 41.0017785 ], [ 28.9782781, 41.0017739 ], [ 28.9790859, 41.0018332 ], [ 28.9801299, 41.00204 ], [ 28.9806572, 41.0022166 ], [ 28.9813953, 41.0025894 ], [ 28.9820251, 41.0030343 ], [ 28.9826005, 41.0036707 ], [ 28.9831409, 41.0042808 ], [ 28.9833866, 41.0045245 ], [ 28.9838445, 41.0048389 ], [ 28.9854959, 41.0057868 ], [ 28.9860409, 41.0063238 ], [ 28.9863188, 41.0067466 ], [ 28.9868789, 41.0083715 ], [ 28.9878568, 41.0102134 ], [ 28.9881084, 41.0124523 ], [ 28.9880682, 41.0130039 ], [ 28.9876177, 41.0140438 ], [ 28.9876254, 41.0141551 ], [ 28.9874677, 41.014719 ], [ 28.9871992, 41.0156244 ], [ 28.9871311, 41.0158941 ], [ 28.987007, 41.0163774 ], [ 28.9869299, 41.0167373 ], [ 28.9868537, 41.0170306 ], [ 28.9868379, 41.0170652 ], [ 28.9868034, 41.0171094 ], [ 28.986736, 41.0171866 ], [ 28.9866906, 41.0173553 ], [ 28.9865039, 41.0174645 ], [ 28.9863711, 41.017452 ], [ 28.9859534, 41.0175515 ], [ 28.9859219, 41.0175584 ], [ 28.9853485, 41.0176519 ], [ 28.9853311, 41.0177639 ], [ 28.9839225, 41.017559 ], [ 28.9836959, 41.0174885 ], [ 28.9834758, 41.01742 ], [ 28.9832049, 41.0173357 ], [ 28.9825979, 41.0171467 ], [ 28.9826424, 41.0170739 ], [ 28.9825649, 41.0170469 ], [ 28.9825361, 41.0170739 ], [ 28.9824574, 41.0170762 ], [ 28.9824409, 41.0170189 ], [ 28.982431, 41.0169822 ], [ 28.9824207, 41.0169488 ], [ 28.9824112, 41.0169193 ], [ 28.9818747, 41.0170115 ], [ 28.9817812, 41.0166992 ], [ 28.9811095, 41.0167169 ], [ 28.9811155, 41.0166514 ], [ 28.9807305, 41.0166699 ], [ 28.9807026, 41.0166968 ], [ 28.9804434, 41.016694 ], [ 28.9791481, 41.0166802 ], [ 28.9782477, 41.0166706 ], [ 28.9782388, 41.0167546 ], [ 28.977657, 41.0166908 ], [ 28.9776393, 41.016772 ], [ 28.9776087, 41.0169129 ], [ 28.9769008, 41.0166667 ], [ 28.976833, 41.0167826 ], [ 28.9768107, 41.0168154 ], [ 28.9767598, 41.0168916 ], [ 28.976422, 41.017018 ], [ 28.9764553, 41.0170639 ], [ 28.976271, 41.0171316 ], [ 28.9761216, 41.0171859 ], [ 28.9760948, 41.0171504 ], [ 28.9753774, 41.0174283 ], [ 28.975408, 41.0174899 ], [ 28.9751818, 41.0175781 ], [ 28.9750682, 41.0176228 ], [ 28.9750441, 41.0175998 ], [ 28.9749868, 41.0175808 ], [ 28.9747744, 41.0176547 ], [ 28.9742404, 41.0178689 ], [ 28.9742914, 41.0179409 ], [ 28.974141, 41.0179964 ], [ 28.9739589, 41.0180697 ], [ 28.973915, 41.0180025 ], [ 28.973217, 41.0182785 ], [ 28.9732003, 41.0183532 ], [ 28.973161, 41.0183472 ], [ 28.9729889, 41.0183223 ], [ 28.9730086, 41.0182529 ], [ 28.9721375, 41.0181338 ], [ 28.9721209, 41.0181402 ], [ 28.9720883, 41.0181528 ], [ 28.9719779, 41.0181955 ], [ 28.9718821, 41.0182325 ], [ 28.9716762, 41.0183121 ], [ 28.9716619, 41.0183176 ], [ 28.9716407, 41.0183258 ], [ 28.9716063, 41.0183391 ], [ 28.9713607, 41.0183204 ], [ 28.9712713, 41.0183672 ], [ 28.9711971, 41.0184027 ], [ 28.9706182, 41.018701 ], [ 28.9706437, 41.0187402 ], [ 28.9704378, 41.0188274 ], [ 28.970211, 41.0189254 ], [ 28.9701878, 41.0188964 ], [ 28.9701334, 41.0189213 ], [ 28.9696293, 41.0196342 ], [ 28.9693205, 41.0195583 ], [ 28.9691454, 41.0195119 ], [ 28.96899, 41.0194416 ], [ 28.968972, 41.0194335 ], [ 28.9689666, 41.0195209 ], [ 28.9688726, 41.0195127 ], [ 28.9687577, 41.0195143 ], [ 28.9687529, 41.0194317 ], [ 28.9677931, 41.0194656 ], [ 28.9675863, 41.0195051 ], [ 28.9674211, 41.0195647 ], [ 28.9672869, 41.0197322 ], [ 28.9670166, 41.0196395 ], [ 28.9663726, 41.0195265 ], [ 28.9662934, 41.0195448 ], [ 28.9660629, 41.0196684 ], [ 28.965954, 41.0198304 ], [ 28.9660181, 41.0203753 ], [ 28.9660151, 41.020449 ], [ 28.9659485, 41.0205195 ], [ 28.9658557, 41.0205555 ], [ 28.9658247, 41.0205445 ], [ 28.9654848, 41.020759 ], [ 28.9651525, 41.0207495 ], [ 28.9650711, 41.0207172 ], [ 28.9648395, 41.0208404 ], [ 28.964651, 41.0209137 ], [ 28.964458, 41.0209573 ], [ 28.9641516, 41.0210907 ], [ 28.9638362, 41.0212987 ], [ 28.9636087, 41.021494 ], [ 28.9634556, 41.0217497 ], [ 28.9634455, 41.0220647 ], [ 28.9635213, 41.0221691 ], [ 28.9635497, 41.0222673 ], [ 28.9635223, 41.0224741 ], [ 28.9634814, 41.0225326 ], [ 28.9631485, 41.0228728 ], [ 28.9629255, 41.0229501 ], [ 28.9629124, 41.022933 ], [ 28.962861, 41.022953 ], [ 28.9627738, 41.0229213 ], [ 28.9626836, 41.02304 ], [ 28.962546, 41.0231252 ], [ 28.9622398, 41.0232975 ], [ 28.9618827, 41.0234446 ], [ 28.961367, 41.0236851 ], [ 28.9612507, 41.0237631 ], [ 28.9610607, 41.0239509 ], [ 28.9604146, 41.0245878 ], [ 28.9604556, 41.0246173 ], [ 28.960137, 41.0249726 ], [ 28.9601566, 41.0249792 ], [ 28.9598903, 41.0252269 ], [ 28.9598773, 41.0252654 ], [ 28.9597796, 41.0254767 ], [ 28.9597353, 41.0254602 ], [ 28.9596168, 41.0257357 ], [ 28.9596525, 41.0259078 ], [ 28.959596, 41.0259209 ], [ 28.9596655, 41.0261985 ], [ 28.9597449, 41.0262192 ], [ 28.9597327, 41.0262888 ], [ 28.9596986, 41.0262778 ], [ 28.9596095, 41.0263111 ], [ 28.9595475, 41.0263838 ], [ 28.9594585, 41.0265174 ], [ 28.9594321, 41.0265211 ], [ 28.9593521, 41.0265902 ], [ 28.9592158, 41.0266309 ], [ 28.9591279, 41.0266679 ], [ 28.95895, 41.0267833 ], [ 28.9588484, 41.0268524 ], [ 28.9587248, 41.0269222 ], [ 28.9585766, 41.026991 ], [ 28.9584578, 41.0271141 ], [ 28.9583436, 41.0271909 ], [ 28.9582682, 41.0272262 ], [ 28.9582394, 41.0272724 ], [ 28.9582498, 41.0272888 ], [ 28.9578964, 41.0275588 ], [ 28.9578654, 41.0275273 ], [ 28.9578344, 41.0275354 ], [ 28.9577987, 41.0275633 ], [ 28.9577177, 41.0276676 ], [ 28.9575418, 41.0279633 ], [ 28.957452, 41.0281416 ], [ 28.9574996, 41.0281902 ], [ 28.9575122, 41.0282441 ], [ 28.9575124, 41.0283342 ], [ 28.9574603, 41.02841 ], [ 28.9573208, 41.0285103 ], [ 28.957197, 41.0285878 ], [ 28.9571205, 41.0286118 ], [ 28.9569584, 41.0285814 ], [ 28.956662, 41.028549 ], [ 28.9563364, 41.0285516 ], [ 28.9559915, 41.0286081 ], [ 28.9559171, 41.0286134 ], [ 28.9555857, 41.0286938 ], [ 28.9553792, 41.0286929 ], [ 28.9551284, 41.0287307 ], [ 28.9545665, 41.0288452 ], [ 28.9543123, 41.0289155 ], [ 28.9539711, 41.0290442 ], [ 28.9534118, 41.0291388 ], [ 28.9532249, 41.0291903 ], [ 28.953034, 41.029335 ], [ 28.9526532, 41.0298095 ], [ 28.9526325, 41.0298353 ], [ 28.9526139, 41.0298943 ], [ 28.952623, 41.0299433 ], [ 28.9526473, 41.0299896 ], [ 28.952735, 41.0300682 ], [ 28.9529884, 41.0302852 ], [ 28.9529678, 41.0303922 ], [ 28.952814, 41.0305708 ], [ 28.9527724, 41.0306527 ], [ 28.9527501, 41.0306771 ], [ 28.9525685, 41.0308233 ], [ 28.9526135, 41.0308557 ], [ 28.9525473, 41.0309069 ], [ 28.952489, 41.0309603 ], [ 28.9524711, 41.0309807 ], [ 28.9524403, 41.0310105 ], [ 28.9523287, 41.0310872 ], [ 28.9522571, 41.031077 ], [ 28.9519963, 41.0309529 ], [ 28.9516557, 41.0310635 ], [ 28.9512106, 41.0312027 ], [ 28.95104, 41.0312109 ], [ 28.9505876, 41.031463 ], [ 28.9505269, 41.0315251 ], [ 28.9501349, 41.0319849 ], [ 28.9497438, 41.0323595 ], [ 28.9497618, 41.0323937 ], [ 28.9497859, 41.0324257 ], [ 28.9498476, 41.0324879 ], [ 28.9497808, 41.0330162 ], [ 28.9496919, 41.0330931 ], [ 28.9497316, 41.0331549 ], [ 28.9497399, 41.0331372 ], [ 28.950161, 41.0333067 ], [ 28.9500233, 41.0335129 ], [ 28.9496266, 41.0337872 ], [ 28.9495473, 41.0337375 ], [ 28.9492514, 41.0338878 ], [ 28.9491023, 41.0342451 ], [ 28.9491634, 41.0343012 ], [ 28.9490861, 41.0345609 ], [ 28.9490982, 41.0347727 ], [ 28.9492988, 41.0347364 ], [ 28.9493238, 41.0348188 ], [ 28.9493421, 41.0348791 ], [ 28.9492827, 41.0348915 ], [ 28.9492926, 41.034931 ], [ 28.9491771, 41.0349555 ], [ 28.9491751, 41.0350059 ], [ 28.9491945, 41.035179 ], [ 28.9492422, 41.0352998 ], [ 28.949069, 41.0354811 ], [ 28.948843, 41.0356973 ], [ 28.948866, 41.0357172 ], [ 28.9488153, 41.0357457 ], [ 28.9484968, 41.0358381 ], [ 28.9485607, 41.0359744 ], [ 28.948486, 41.0360084 ], [ 28.9483335, 41.0360503 ], [ 28.9481775, 41.036062 ], [ 28.9479428, 41.0361235 ], [ 28.9473571, 41.0363734 ], [ 28.9471305, 41.0365973 ], [ 28.946942, 41.0368212 ], [ 28.9467538, 41.037162 ], [ 28.9466188, 41.0374302 ], [ 28.9465945, 41.0374992 ], [ 28.9465801, 41.0375429 ], [ 28.9465682, 41.037577 ], [ 28.9463991, 41.0377714 ], [ 28.9463132, 41.0378976 ], [ 28.9463477, 41.0380751 ], [ 28.9462944, 41.0381695 ], [ 28.9460579, 41.0385848 ], [ 28.945967, 41.0387288 ], [ 28.9455174, 41.0394408 ], [ 28.9447463, 41.0406939 ], [ 28.9448996, 41.0407799 ], [ 28.9448547, 41.0408106 ], [ 28.9448171, 41.04086 ], [ 28.944566, 41.0407646 ], [ 28.9433461, 41.0395188 ], [ 28.9425656, 41.0399782 ], [ 28.9424535, 41.0398427 ], [ 28.9421769, 41.0398192 ], [ 28.9417027, 41.0397306 ], [ 28.9414326, 41.0390353 ], [ 28.9413422, 41.0390597 ], [ 28.9411335, 41.0388417 ], [ 28.9404606, 41.0382353 ], [ 28.9401441, 41.038171 ], [ 28.9393804, 41.0378873 ], [ 28.9391852, 41.0373909 ], [ 28.9392217, 41.0371418 ], [ 28.9393748, 41.036665 ], [ 28.9393886, 41.0364593 ], [ 28.9394073, 41.0361816 ], [ 28.9391074, 41.0349707 ], [ 28.9393923, 41.0347881 ], [ 28.9397611, 41.0346128 ], [ 28.9403179, 41.0345293 ], [ 28.9402465, 41.0336192 ], [ 28.9400293, 41.033317 ], [ 28.937651, 41.0321139 ], [ 28.9361332, 41.0313447 ], [ 28.9360791, 41.0312895 ], [ 28.9359626, 41.0311126 ], [ 28.9354625, 41.0303057 ], [ 28.9355167, 41.0300513 ], [ 28.9354455, 41.0298938 ], [ 28.934935, 41.0293353 ], [ 28.934378, 41.0288529 ], [ 28.9335027, 41.0280892 ], [ 28.9330336, 41.0276827 ], [ 28.932271, 41.0270573 ], [ 28.9317858, 41.0265262 ], [ 28.9299073, 41.0247441 ], [ 28.9295982, 41.0243851 ], [ 28.929299, 41.0245906 ], [ 28.9291116, 41.0244431 ], [ 28.9261921, 41.021786 ], [ 28.9260524, 41.0216084 ], [ 28.926146, 41.0215371 ], [ 28.9252078, 41.0208116 ], [ 28.9245796, 41.0198446 ], [ 28.9244064, 41.0195883 ], [ 28.9242622, 41.0193455 ], [ 28.9241248, 41.0194001 ], [ 28.9233041, 41.0178825 ], [ 28.9232168, 41.0179168 ], [ 28.9229188, 41.0173312 ], [ 28.9224141, 41.016118 ], [ 28.922184, 41.0155277 ], [ 28.9217529, 41.0133155 ], [ 28.9219022, 41.0127467 ], [ 28.9223402, 41.0116278 ], [ 28.9222845, 41.0093062 ], [ 28.9221021, 41.0093001 ], [ 28.9221, 41.0089873 ], [ 28.922393, 41.0089513 ], [ 28.9223285, 41.0082642 ], [ 28.9220005, 41.0081726 ], [ 28.9215812, 41.0065206 ], [ 28.9214833, 41.0060829 ], [ 28.9213246, 41.0050312 ], [ 28.9210638, 41.0038189 ], [ 28.9209879, 41.0034021 ], [ 28.9209408, 41.003174 ], [ 28.9203384, 41.0010633 ], [ 28.9202768, 41.000779 ], [ 28.9203071, 40.9998086 ], [ 28.9203534, 40.9995343 ], [ 28.9206885, 40.9979609 ], [ 28.9207991, 40.9976553 ], [ 28.9209134, 40.9971539 ], [ 28.9212112, 40.9957666 ], [ 28.9214328, 40.9947385 ], [ 28.9219913, 40.9938695 ], [ 28.9220939, 40.9939215 ], [ 28.922377, 40.9933231 ], [ 28.9221647, 40.993259 ], [ 28.9224053, 40.9926393 ], [ 28.9226152, 40.9926551 ], [ 28.922462, 40.9920516 ], [ 28.9207065, 40.9905342 ], [ 28.9206091, 40.9905586 ], [ 28.9204674, 40.9905214 ], [ 28.9204612, 40.9904051 ], [ 28.9205845, 40.990354 ], [ 28.9204304, 40.9900563 ], [ 28.9202887, 40.9900888 ], [ 28.9202517, 40.9899865 ], [ 28.9203441, 40.9899586 ], [ 28.9201346, 40.9895028 ], [ 28.9200607, 40.9895214 ], [ 28.9199682, 40.9894935 ], [ 28.9199867, 40.9894377 ], [ 28.9200792, 40.9893958 ], [ 28.9200422, 40.9890144 ], [ 28.9199436, 40.9890237 ], [ 28.919882, 40.9889772 ] ] ] } }
]
}
