{
"type": "FeatureCollection",
"name": "grid_500m",
"crs": { "type": "name", "properties": { "name": "urn:ogc:def:crs:OGC:1.3:CRS84" } },
"features": [
{ "type": "Feature", "properties": { "grid_id": "G0101", "grid_row": 1, "grid_column": 1, "cell_area_m2": 32.777123492127743, "cell_area_km2": 3.2777123492127739e-05, "image_count": 0, "eligible_street_length_m": 0.0, "covered_street_length_m": 0.0, "uncovered_street_length_m": 0.0, "street_coverage_pct": null, "image_density_per_km2": 0.0, "images_per_km_street": null, "uncovered_street_km_per_km2": 0.0, "centroid_lon": 28.91991010143385, "centroid_lat": 40.98894375523237 }, "geometry": { "type": "MultiPolygon", "coordinates": [ [ [ [ 28.919908047925112, 40.988314563155093 ], [ 28.9199066, 40.9883492 ], [ 28.9199091653214, 40.988353072463674 ], [ 28.919908047925112, 40.988314563155093 ] ] ], [ [ [ 28.919924817549315, 40.988892494052116 ], [ 28.9199066, 40.9888934 ], [ 28.919882, 40.9889772 ], [ 28.919928289408805, 40.989012142501423 ], [ 28.919924817549315, 40.988892494052116 ] ] ] ] } },
{ "type": "Feature", "properties": { "grid_id": "G0102", "grid_row": 1, "grid_column": 2, "cell_area_m2": 145442.46452248548, "cell_area_km2": 0.14544246452248547, "image_count": 971, "eligible_street_length_m": 1218.4218927882255, "covered_street_length_m": 1131.1143878060532, "uncovered_street_length_m": 87.307504982172304, "street_coverage_pct": 92.834378182225649, "image_density_per_km2": 6676.1794994878064, "images_per_km_street": 796.93249583522538, "uncovered_street_km_per_km2": 0.60028895459671294, "centroid_lon": 28.922891058033482, "centroid_lat": 40.989236853521192 }, "geometry": { "type": "Polygon", "coordinates": [ [ [ 28.925918282222796, 40.990601326940507 ], [ 28.925873732158056, 40.989070837061874 ], [ 28.9253411, 40.9884466 ], [ 28.9250671, 40.9882219 ], [ 28.9247335, 40.9880625 ], [ 28.9238398, 40.9877495 ], [ 28.9234109, 40.987661 ], [ 28.9232515, 40.9876489 ], [ 28.9227473, 40.9876327 ], [ 28.9222645, 40.9876732 ], [ 28.9213203, 40.9878514 ], [ 28.9200758, 40.9879 ], [ 28.9199245, 40.987921 ], [ 28.919908047925112, 40.988314563155093 ], [ 28.9199091653214, 40.988353072463674 ], [ 28.9201531, 40.9887213 ], [ 28.92011, 40.9888283 ], [ 28.9200052, 40.988837599999982 ], [ 28.9199991, 40.9888888 ], [ 28.919924817549315, 40.988892494052116 ], [ 28.919928289408805, 40.989012142501423 ], [ 28.9199436, 40.9890237 ], [ 28.9200422, 40.9890144 ], [ 28.9200792, 40.9893958 ], [ 28.9199867, 40.9894377 ], [ 28.9199682, 40.9894935 ], [ 28.9200607, 40.9895214 ], [ 28.9201346, 40.9895028 ], [ 28.9203441, 40.9899586 ], [ 28.9202517, 40.9899865 ], [ 28.9202887, 40.990088800000017 ], [ 28.9204304, 40.9900563 ], [ 28.9205845, 40.990354 ], [ 28.9204612, 40.9904051 ], [ 28.9204674, 40.9905214 ], [ 28.9206091, 40.9905586 ], [ 28.9207065, 40.9905342 ], [ 28.920881416107164, 40.990685396514515 ], [ 28.925918282222796, 40.990601326940507 ] ] ] } },
{ "type": "Feature", "properties": { "grid_id": "G0103", "grid_row": 1, "grid_column": 3, "cell_area_m2": 8896.4728272481952, "cell_area_km2": 0.008896472827248196, "image_count": 0, "eligible_street_length_m": 0.0, "covered_street_length_m": 0.0, "uncovered_street_length_m": 0.0, "street_coverage_pct": null, "image_density_per_km2": 0.0, "images_per_km_street": null, "uncovered_street_km_per_km2": 0.0, "centroid_lon": 28.926317980893646, "centroid_lat": 40.990084234780333 }, "geometry": { "type": "Polygon", "coordinates": [ [ [ 28.925918282222796, 40.990601326940507 ], [ 28.927161938584952, 40.990580535348684 ], [ 28.925873732158056, 40.989070837061874 ], [ 28.925918282222796, 40.990601326940507 ] ] ] } },
{ "type": "Feature", "properties": { "grid_id": "G0202", "grid_row": 2, "grid_column": 2, "cell_area_m2": 170702.53804247879, "cell_area_km2": 0.17070253804247879, "image_count": 384, "eligible_street_length_m": 3158.3800348630948, "covered_street_length_m": 1241.961803123455, "uncovered_street_length_m": 1916.4182317396399, "street_coverage_pct": 39.322747402602864, "image_density_per_km2": 2249.527185731959, "images_per_km_street": 121.58131566223794, "uncovered_street_km_per_km2": 11.226653415444504, "centroid_lon": 28.923929799196717, "centroid_lat": 40.99290087214726 }, "geometry": { "type": "Polygon", "coordinates": [ [ [ 28.926049335691378, 40.995102902068631 ], [ 28.925918282222796, 40.990601326940507 ], [ 28.920881416107164, 40.990685396514515 ], [ 28.922462, 40.9920516 ], [ 28.9226152, 40.9926551 ], [ 28.9224053, 40.9926393 ], [ 28.9221647, 40.993259 ], [ 28.922377, 40.9933231 ], [ 28.9220939, 40.9939215 ], [ 28.9219913, 40.99386950000001 ], [ 28.9214328, 40.9947385 ], [ 28.921337301414852, 40.99518156363046 ], [ 28.926049335691378, 40.995102902068631 ] ] ] } },
{ "type": "Feature", "properties": { "grid_id": "G0203", "grid_row": 2, "grid_column": 3, "cell_area_m2": 145076.30031260537, "cell_area_km2": 0.14507630031260538, "image_count": 810, "eligible_street_length_m": 3610.6229896964314, "covered_street_length_m": 1477.1413002820627, "uncovered_street_length_m": 2133.4816894143687, "street_coverage_pct": 40.910981415045377, "image_density_per_km2": 5583.2689298985442, "images_per_km_street": 224.33801654492373, "uncovered_street_km_per_km2": 14.705928430882347, "centroid_lon": 28.92799785296901, "centroid_lat": 40.993252749340748 }, "geometry": { "type": "Polygon", "coordinates": [ [ [ 28.925918282222796, 40.990601326940507 ], [ 28.926049335691378, 40.995102902068631 ], [ 28.931990709939473, 40.995003443396037 ], [ 28.931987536600953, 40.994894789049781 ], [ 28.931956, 40.9948611 ], [ 28.9317586, 40.9947057 ], [ 28.9316936, 40.9946799 ], [ 28.9313709, 40.994552 ], [ 28.9312994, 40.9945114 ], [ 28.9296128, 40.9935525 ], [ 28.9295768, 40.9932894 ], [ 28.9296776, 40.993112599999989 ], [ 28.9295746, 40.993032 ], [ 28.929487, 40.9930856 ], [ 28.9292527, 40.9928362 ], [ 28.9291141, 40.992919 ], [ 28.929031, 40.9928852 ], [ 28.9279473, 40.9917755 ], [ 28.9280372, 40.9916432 ], [ 28.928598, 40.9912894 ], [ 28.9291558, 40.9911061 ], [ 28.9292796, 40.9911011 ], [ 28.9293545, 40.9911617 ], [ 28.9295504, 40.991524299999988 ], [ 28.9299891, 40.9924017 ], [ 28.9299774, 40.9924643 ], [ 28.9298783, 40.9927126 ], [ 28.9299778, 40.9927924 ], [ 28.9301473, 40.9927495 ], [ 28.9302918, 40.9925233 ], [ 28.9303002, 40.99233060000001 ], [ 28.929591, 40.9909443 ], [ 28.9294262, 40.9908643 ], [ 28.9287186, 40.9909944 ], [ 28.9279508, 40.9914066 ], [ 28.9278438, 40.9913796 ], [ 28.927161938584952, 40.990580535348684 ], [ 28.925918282222796, 40.990601326940507 ] ] ] } },
{ "type": "Feature", "properties": { "grid_id": "G0204", "grid_row": 2, "grid_column": 4, "cell_area_m2": 49.266773259714029, "cell_area_km2": 4.926677325971403e-05, "image_count": 0, "eligible_street_length_m": 0.0, "covered_street_length_m": 0.0, "uncovered_street_length_m": 0.0, "street_coverage_pct": null, "image_density_per_km2": 0.0, "images_per_km_street": null, "uncovered_street_km_per_km2": 0.0, "centroid_lon": 28.932021990975507, "centroid_lat": 40.994966683090368 }, "geometry": { "type": "Polygon", "coordinates": [ [ [ 28.931990709939473, 40.995003443396037 ], [ 28.932087726442266, 40.995001816795252 ], [ 28.931987536600953, 40.994894789049781 ], [ 28.931990709939473, 40.995003443396037 ] ] ] } },
{ "type": "Feature", "properties": { "grid_id": "G0302", "grid_row": 3, "grid_column": 2, "cell_area_m2": 222364.12096783181, "cell_area_km2": 0.22236412096783181, "image_count": 321, "eligible_street_length_m": 3640.6676205279041, "covered_street_length_m": 538.43327429892747, "uncovered_street_length_m": 3102.2343462289764, "street_coverage_pct": 14.789410361521924, "image_density_per_km2": 1443.578211281834, "images_per_km_street": 88.170641612555215, "uncovered_street_km_per_km2": 13.951146132418366, "centroid_lon": 28.923464026903691, "centroid_lat": 40.997481318488681 }, "geometry": { "type": "Polygon", "coordinates": [ [ [ 28.926180418839845, 40.999604473324247 ], [ 28.926049335691378, 40.995102902068631 ], [ 28.921337301414852, 40.99518156363046 ], [ 28.9212112, 40.9957666 ], [ 28.9209134, 40.9971539 ], [ 28.9207991, 40.9976553 ], [ 28.9206885, 40.99796090000001 ], [ 28.9203534, 40.9995343 ], [ 28.920325059480465, 40.999702200987834 ], [ 28.926180418839845, 40.999604473324247 ] ] ] } },
{ "type": "Feature", "properties": { "grid_id": "G0303", "grid_row": 3, "grid_column": 3, "cell_area_m2": 250000.0, "cell_area_km2": 0.25, "image_count": 747, "eligible_street_length_m": 6747.7700006786154, "covered_street_length_m": 1671.4724797501149, "uncovered_street_length_m": 5076.2975209285005, "street_coverage_pct": 24.770738771209107, "image_density_per_km2": 2988.0, "images_per_km_street": 110.70323972584647, "uncovered_street_km_per_km2": 20.305190083714002, "centroid_lon": 28.929085665326152, "centroid_lat": 40.997303993180047 }, "geometry": { "type": "Polygon", "coordinates": [ [ [ 28.926049335691378, 40.995102902068631 ], [ 28.926180418839845, 40.999604473324247 ], [ 28.932122196833934, 40.999504998972164 ], [ 28.931990709939473, 40.995003443396037 ], [ 28.926049335691378, 40.995102902068631 ] ] ] } },
{ "type": "Feature", "properties": { "grid_id": "G0304", "grid_row": 3, "grid_column": 4, "cell_area_m2": 58956.479399743737, "cell_area_km2": 0.058956479399743737, "image_count": 483, "eligible_street_length_m": 1715.6151185260765, "covered_street_length_m": 1355.0682504173922, "uncovered_street_length_m": 360.54686810868429, "street_coverage_pct": 78.984396662438002, "image_density_per_km2": 8192.4837595051413, "images_per_km_street": 281.53167618093516, "uncovered_street_km_per_km2": 6.1154748685731644, "centroid_lon": 28.932910700816237, "centroid_lat": 40.997810408835761 }, "geometry": { "type": "Polygon", "coordinates": [ [ [ 28.931990709939473, 40.995003443396037 ], [ 28.932122196833934, 40.999504998972164 ], [ 28.934639436628142, 40.999462764120025 ], [ 28.9345888, 40.9994116 ], [ 28.9340843, 40.998603 ], [ 28.9332114, 40.9966042 ], [ 28.9331299, 40.9962505 ], [ 28.932315, 40.9952446 ], [ 28.932087726442266, 40.995001816795252 ], [ 28.931990709939473, 40.995003443396037 ] ] ] } },
{ "type": "Feature", "properties": { "grid_id": "G0305", "grid_row": 3, "grid_column": 5, "cell_area_m2": 99186.549683265897, "cell_area_km2": 0.099186549683265901, "image_count": 163, "eligible_street_length_m": 208.52562157946795, "covered_street_length_m": 203.72430648844932, "uncovered_street_length_m": 4.8013150910186368, "street_coverage_pct": 97.697493931608363, "image_density_per_km2": 1643.3679820551342, "images_per_km_street": 781.67852355678804, "uncovered_street_km_per_km2": 0.048406917130908958, "centroid_lon": 28.941802865014555, "centroid_lat": 40.998244557864368 }, "geometry": { "type": "Polygon", "coordinates": [ [ [ 28.944005663394208, 40.999305132073204 ], [ 28.943921018761955, 40.996425083053261 ], [ 28.9437272, 40.9964619 ], [ 28.9431984, 40.9965854 ], [ 28.9428347, 40.9966772 ], [ 28.9421, 40.9969049 ], [ 28.9417572, 40.9970445 ], [ 28.941296, 40.997229 ], [ 28.9407734, 40.9974773 ], [ 28.9402707, 40.9977416 ], [ 28.9398149, 40.9980139 ], [ 28.9394387, 40.9982607 ], [ 28.9390784, 40.9985348 ], [ 28.9387649, 40.9988213 ], [ 28.9385226, 40.9991098 ], [ 28.9383236, 40.999394500000015 ], [ 28.938320323270222, 40.99940090626724 ], [ 28.944005663394208, 40.999305132073204 ] ] ] } },
{ "type": "Feature", "properties": { "grid_id": "G0306", "grid_row": 3, "grid_column": 6, "cell_area_m2": 162735.27589568042, "cell_area_km2": 0.1627352758956804, "image_count": 184, "eligible_street_length_m": 0.0, "covered_street_length_m": 0.0, "uncovered_street_length_m": 0.0, "street_coverage_pct": null, "image_density_per_km2": 1130.6706489252588, "images_per_km_street": null, "uncovered_street_km_per_km2": 0.0, "centroid_lon": 28.946873420487499, "centroid_lat": 40.997787420331143 }, "geometry": { "type": "Polygon", "coordinates": [ [ [ 28.944005663394208, 40.999305132073204 ], [ 28.949947351777784, 40.999204739535202 ], [ 28.9498728633389, 40.996677999216672 ], [ 28.9498037, 40.9966575 ], [ 28.9492013, 40.9965081 ], [ 28.948632, 40.9963976 ], [ 28.9480318, 40.9963078 ], [ 28.9474042, 40.9962443 ], [ 28.9467872, 40.996211699999989 ], [ 28.9461377, 40.9962017 ], [ 28.9455552, 40.9962221 ], [ 28.9449427, 40.9962668 ], [ 28.9443147, 40.9963503 ], [ 28.943921018761955, 40.996425083053261 ], [ 28.944005663394208, 40.999305132073204 ] ] ] } },
{ "type": "Feature", "properties": { "grid_id": "G0307", "grid_row": 3, "grid_column": 7, "cell_area_m2": 70212.730633296465, "cell_area_km2": 0.070212730633296472, "image_count": 216, "eligible_street_length_m": 90.890225268733573, "covered_street_length_m": 59.311348663179743, "uncovered_street_length_m": 31.57887660555383, "street_coverage_pct": 65.256025593307641, "image_density_per_km2": 3076.3651840876828, "images_per_km_street": 2376.4931747210057, "uncovered_street_km_per_km2": 0.44975998399040196, "centroid_lon": 28.951898485473542, "centroid_lat": 40.998284094266381 }, "geometry": { "type": "Polygon", "coordinates": [ [ [ 28.955864974887426, 40.998291247369345 ], [ 28.9554241, 40.9982979 ], [ 28.9550131, 40.9983089 ], [ 28.9546545, 40.998348099999987 ], [ 28.9534297, 40.9983668 ], [ 28.9531355, 40.9981549 ], [ 28.9527749, 40.9979254 ], [ 28.9523867, 40.9976936 ], [ 28.9519476, 40.9974632 ], [ 28.9514561, 40.9972372 ], [ 28.9509356, 40.9970245 ], [ 28.9503847, 40.9968297 ], [ 28.9498728633389, 40.996677999216672 ], [ 28.949947351777784, 40.999204739535202 ], [ 28.953879904585921, 40.999138125354357 ], [ 28.9547749, 40.9986844 ], [ 28.955876104790775, 40.998667628911953 ], [ 28.955864974887426, 40.998291247369345 ] ] ] } },
{ "type": "Feature", "properties": { "grid_id": "G0308", "grid_row": 3, "grid_column": 8, "cell_area_m2": 16947.928590197924, "cell_area_km2": 0.016947928590197923, "image_count": 0, "eligible_street_length_m": 0.0, "covered_street_length_m": 0.0, "uncovered_street_length_m": 0.0, "street_coverage_pct": null, "image_density_per_km2": 0.0, "images_per_km_street": null, "uncovered_street_km_per_km2": 0.0, "centroid_lon": 28.958324144819688, "centroid_lat": 40.998427633689666 }, "geometry": { "type": "Polygon", "coordinates": [ [ [ 28.955876104790775, 40.998667628911953 ], [ 28.9598644, 40.9986068 ], [ 28.9598595, 40.9984246 ], [ 28.9602874, 40.9984188 ], [ 28.9606821, 40.9984932 ], [ 28.9607694, 40.9985174 ], [ 28.9608585, 40.998517 ], [ 28.9609421, 40.9984937 ], [ 28.9610355, 40.9984226 ], [ 28.9610656, 40.9983593 ], [ 28.9610692, 40.9983212 ], [ 28.9610514, 40.9982554 ], [ 28.9610048, 40.998198 ], [ 28.9609175, 40.9981497 ], [ 28.9608311, 40.998133299999985 ], [ 28.9607202, 40.9981459 ], [ 28.9602822, 40.9982245 ], [ 28.955864974887426, 40.998291247369345 ], [ 28.955876104790775, 40.998667628911953 ] ] ] } },
{ "type": "Feature", "properties": { "grid_id": "G0402", "grid_row": 4, "grid_column": 2, "cell_area_m2": 236405.92009363571, "cell_area_km2": 0.2364059200936357, "image_count": 1161, "eligible_street_length_m": 5175.3611573315766, "covered_street_length_m": 1744.4383096280988, "uncovered_street_length_m": 3430.9228477034776, "street_coverage_pct": 33.70660049795508, "image_density_per_km2": 4911.0445268889671, "images_per_km_street": 224.33217020135714, "uncovered_street_km_per_km2": 14.512846574842783, "centroid_lon": 28.92342891913853, "centroid_lat": 41.001844344326031 }, "geometry": { "type": "Polygon", "coordinates": [ [ [ 28.926311531675857, 41.004106040707164 ], [ 28.926180418839845, 40.999604473324247 ], [ 28.920325059480465, 40.999702200987834 ], [ 28.9203071, 40.9998086 ], [ 28.9202768, 41.000779 ], [ 28.9203384, 41.0010633 ], [ 28.9209408, 41.003174 ], [ 28.9209879, 41.0034021 ], [ 28.9210638, 41.0038189 ], [ 28.921144129771989, 41.00419230933683 ], [ 28.926311531675857, 41.004106040707164 ] ] ] } },
{ "type": "Feature", "properties": { "grid_id": "G0403", "grid_row": 4, "grid_column": 3, "cell_area_m2": 250000.0, "cell_area_km2": 0.25, "image_count": 1208, "eligible_street_length_m": 8245.7815626635274, "covered_street_length_m": 2108.5995917859109, "uncovered_street_length_m": 6137.1819708776165, "street_coverage_pct": 25.571858480141419, "image_density_per_km2": 4832.0, "images_per_km_street": 146.49915121081565, "uncovered_street_km_per_km2": 24.548727883510466, "centroid_lon": 28.929216965214223, "centroid_lat": 41.001805554665083 }, "geometry": { "type": "Polygon", "coordinates": [ [ [ 28.926180418839845, 40.999604473324247 ], [ 28.926311531675857, 41.004106040707164 ], [ 28.932253713507258, 41.004006550673488 ], [ 28.932122196833934, 40.999504998972164 ], [ 28.926180418839845, 40.999604473324247 ] ] ] } },
{ "type": "Feature", "properties": { "grid_id": "G0404", "grid_row": 4, "grid_column": 4, "cell_area_m2": 211605.32378614828, "cell_area_km2": 0.21160532378614827, "image_count": 1328, "eligible_street_length_m": 7321.459999334329, "covered_street_length_m": 2872.507700621461, "uncovered_street_length_m": 4448.9522987128676, "street_coverage_pct": 39.234083104771877, "image_density_per_km2": 6275.834540638014, "images_per_km_street": 181.38458724362934, "uncovered_street_km_per_km2": 21.024765441199627, "centroid_lon": 28.934857734775381, "centroid_lat": 41.001983495004701 }, "geometry": { "type": "MultiPolygon", "coordinates": [ [ [ [ 28.938079423647523, 40.999933449240771 ], [ 28.9380479, 41.0000195 ], [ 28.937978, 41.000364500000011 ], [ 28.9379863, 41.0006263 ], [ 28.937989, 41.0007118 ], [ 28.9380206, 41.0007563 ], [ 28.938104647549682, 41.000794223038497 ], [ 28.938079423647523, 40.999933449240771 ] ] ], [ [ [ 28.932122196833934, 40.999504998972164 ], [ 28.932253713507258, 41.004006550673488 ], [ 28.938195865552107, 41.003906754525197 ], [ 28.938117818435117, 41.001243668883987 ], [ 28.9378913, 41.001217 ], [ 28.937785, 41.0013076 ], [ 28.9376349, 41.0013129 ], [ 28.9371837, 41.0012678 ], [ 28.9369102, 41.0011317 ], [ 28.9368102, 41.0010883 ], [ 28.9363877, 41.0007921 ], [ 28.9362437, 41.0005126 ], [ 28.9360855, 41.0004235 ], [ 28.9355619, 41.0002385 ], [ 28.9350211, 40.9998484 ], [ 28.934639436628142, 40.999462764120025 ], [ 28.932122196833934, 40.999504998972164 ] ] ] ] } },
{ "type": "Feature", "properties": { "grid_id": "G0405", "grid_row": 4, "grid_column": 5, "cell_area_m2": 245820.33269912339, "cell_area_km2": 0.2458203326991234, "image_count": 1312, "eligible_street_length_m": 6458.7251097063863, "covered_street_length_m": 3879.8886694385246, "uncovered_street_length_m": 2578.8364402678617, "street_coverage_pct": 60.07205142711058, "image_density_per_km2": 5337.2314063452513, "images_per_km_street": 203.1360644267524, "uncovered_street_km_per_km2": 10.490736921360687, "centroid_lon": 28.941144902284186, "centroid_lat": 41.001616027613188 }, "geometry": { "type": "Polygon", "coordinates": [ [ [ 28.938195865552107, 41.003906754525197 ], [ 28.944137987719078, 41.003806652266711 ], [ 28.944005663394208, 40.999305132073204 ], [ 28.938320323270222, 40.99940090626724 ], [ 28.9381589, 40.9997165 ], [ 28.938079423647523, 40.999933449240771 ], [ 28.938104647549682, 41.000794223038497 ], [ 28.9388639, 41.0011368 ], [ 28.9389455, 41.0012049 ], [ 28.9389833, 41.001288899999984 ], [ 28.9389839, 41.0013881 ], [ 28.9389494, 41.001492 ], [ 28.9388948, 41.001583 ], [ 28.9388205, 41.0016702 ], [ 28.9387601, 41.0017218 ], [ 28.9385549, 41.0016336 ], [ 28.9385029, 41.001552899999986 ], [ 28.9385832, 41.0013781 ], [ 28.9385225, 41.001272299999989 ], [ 28.9383302, 41.0012122 ], [ 28.9381631, 41.001249 ], [ 28.938117818435117, 41.001243668883987 ], [ 28.938195865552107, 41.003906754525197 ] ] ] } },
{ "type": "Feature", "properties": { "grid_id": "G0406", "grid_row": 4, "grid_column": 6, "cell_area_m2": 250000.0, "cell_area_km2": 0.25, "image_count": 1392, "eligible_street_length_m": 5564.2316739375974, "covered_street_length_m": 3346.4545822739419, "uncovered_street_length_m": 2217.7770916636555, "street_coverage_pct": 60.14225823752917, "image_density_per_km2": 5568.0, "images_per_km_street": 250.1693102607523, "uncovered_street_km_per_km2": 8.8711083666546227, "centroid_lon": 28.947042770701973, "centroid_lat": 41.001505730689367 }, "geometry": { "type": "Polygon", "coordinates": [ [ [ 28.944005663394208, 40.999305132073204 ], [ 28.944137987719078, 41.003806652266711 ], [ 28.950080079916834, 41.003706243902514 ], [ 28.949947351777784, 40.999204739535202 ], [ 28.944005663394208, 40.999305132073204 ] ] ] } },
{ "type": "Feature", "properties": { "grid_id": "G0407", "grid_row": 4, "grid_column": 7, "cell_area_m2": 175269.49550908917, "cell_area_km2": 0.17526949550908918, "image_count": 1450, "eligible_street_length_m": 5699.3293020864403, "covered_street_length_m": 3386.723869693199, "uncovered_street_length_m": 2312.6054323932412, "street_coverage_pct": 59.423200348387823, "image_density_per_km2": 8272.9741178766926, "images_per_km_street": 254.41590109018205, "uncovered_street_km_per_km2": 13.194568887620912, "centroid_lon": 28.952281151838267, "centroid_lat": 41.001699258161054 }, "geometry": { "type": "Polygon", "coordinates": [ [ [ 28.949947351777784, 40.999204739535202 ], [ 28.950080079916834, 41.003706243902514 ], [ 28.956022142054056, 41.003605529437024 ], [ 28.95597664182284, 41.00206718006681 ], [ 28.9558633, 41.002138399999986 ], [ 28.9556981, 41.0019861 ], [ 28.955548, 41.0018477 ], [ 28.9554561, 41.0019007 ], [ 28.9557649, 41.0021876 ], [ 28.9554778, 41.0023818 ], [ 28.9541165, 41.0022146 ], [ 28.9541738, 41.0019835 ], [ 28.9542622, 41.001627 ], [ 28.9541898, 41.0016092 ], [ 28.9540639, 41.0021701 ], [ 28.9537443, 41.0021298 ], [ 28.9528696, 41.00122360000001 ], [ 28.9531455, 41.0005808 ], [ 28.9535575, 41.0006924 ], [ 28.9535916, 41.000622300000011 ], [ 28.9531825, 41.0004946 ], [ 28.9533486, 41.0001076 ], [ 28.9537629, 41.0002142 ], [ 28.953791, 41.0001484 ], [ 28.9533822, 41.0000294 ], [ 28.9537328, 40.9992127 ], [ 28.953879904585921, 40.999138125354357 ], [ 28.949947351777784, 40.999204739535202 ] ] ] } },
{ "type": "Feature", "properties": { "grid_id": "G0408", "grid_row": 4, "grid_column": 8, "cell_area_m2": 97945.715971544443, "cell_area_km2": 0.097945715971544445, "image_count": 488, "eligible_street_length_m": 3996.6014128949423, "covered_street_length_m": 2110.2156589235165, "uncovered_street_length_m": 1886.3857539714259, "street_coverage_pct": 52.800253037867485, "image_density_per_km2": 4982.3516542752677, "images_per_km_street": 122.1037450533544, "uncovered_street_km_per_km2": 19.259502421927937, "centroid_lon": 28.959004788530187, "centroid_lat": 41.002639748260542 }, "geometry": { "type": "Polygon", "coordinates": [ [ [ 28.961889709636793, 41.000994449753563 ], [ 28.9618559, 41.0009999 ], [ 28.9615921, 41.0010833 ], [ 28.9612476, 41.0013002 ], [ 28.9600847, 41.0015117 ], [ 28.9595754, 41.0016609 ], [ 28.9595521, 41.0016059 ], [ 28.9595159, 41.0016147 ], [ 28.9589005, 41.0017648 ], [ 28.9585377, 41.0018411 ], [ 28.9583233, 41.001306100000015 ], [ 28.9582461, 41.0010903 ], [ 28.9582214, 41.0010664 ], [ 28.9581975, 41.0010632 ], [ 28.9581571, 41.0010817 ], [ 28.9581472, 41.0011218 ], [ 28.9582141, 41.0012967 ], [ 28.9584351, 41.0018663 ], [ 28.9573137, 41.0020517 ], [ 28.9571416, 41.0021625 ], [ 28.9571226, 41.0021747 ], [ 28.9570334, 41.0022321 ], [ 28.9562205, 41.0014236 ], [ 28.956168, 41.0014579 ], [ 28.9561012, 41.0015015 ], [ 28.9564125, 41.0017933 ], [ 28.95597664182284, 41.00206718006681 ], [ 28.956022142054056, 41.003605529437024 ], [ 28.961964174039409, 41.003504508874727 ], [ 28.96192807734284, 41.002287794839518 ], [ 28.9615371, 41.0022883 ], [ 28.9615364, 41.001969899999985 ], [ 28.9614656, 41.00197 ], [ 28.9614663, 41.0022884 ], [ 28.9614559, 41.0022884 ], [ 28.9608645, 41.0020846 ], [ 28.9613466, 41.001433 ], [ 28.9616163, 41.0012345 ], [ 28.9618234, 41.0011515 ], [ 28.96189387213499, 41.001134768367095 ], [ 28.961889709636793, 41.000994449753563 ] ] ] } },
{ "type": "Feature", "properties": { "grid_id": "G0409", "grid_row": 4, "grid_column": 9, "cell_area_m2": 72619.741386854497, "cell_area_km2": 0.072619741386854494, "image_count": 1040, "eligible_street_length_m": 2869.1969316637619, "covered_street_length_m": 2459.1359034816955, "uncovered_street_length_m": 410.06102818206637, "street_coverage_pct": 85.708160229200999, "image_density_per_km2": 14321.174657725496, "images_per_km_street": 362.47076264539811, "uncovered_street_km_per_km2": 5.6466880816556433, "centroid_lon": 28.964843198079141, "centroid_lat": 41.002720678303021 }, "geometry": { "type": "MultiPolygon", "coordinates": [ [ [ [ 28.961964174039409, 41.003504508874727 ], [ 28.967906175781568, 41.003403182220104 ], [ 28.967866182207988, 41.002059180359502 ], [ 28.9671837, 41.0021323 ], [ 28.964943, 41.0023348 ], [ 28.96457, 41.0023163 ], [ 28.9642783, 41.0022697 ], [ 28.964141, 41.0021392 ], [ 28.9639697, 41.0021458 ], [ 28.9636102, 41.002296 ], [ 28.9635151, 41.0022965 ], [ 28.9628868, 41.00229980000001 ], [ 28.9628838, 41.0019723 ], [ 28.9628149, 41.00197 ], [ 28.9628039, 41.002291 ], [ 28.9622333, 41.0022877 ], [ 28.9622352, 41.0019264 ], [ 28.9621578, 41.0019262 ], [ 28.9621558, 41.002287499999987 ], [ 28.96192807734284, 41.002287794839518 ], [ 28.961964174039409, 41.003504508874727 ] ] ], [ [ [ 28.96189387213499, 41.001134768367095 ], [ 28.96205, 41.0010977 ], [ 28.9622502, 41.001080399999978 ], [ 28.9622425, 41.0011155 ], [ 28.9640196, 41.001066 ], [ 28.9640238, 41.0010139 ], [ 28.9653088, 41.0009869 ], [ 28.965316, 41.0010278 ], [ 28.9654593, 41.0010251 ], [ 28.9654895, 41.0009688 ], [ 28.9654464, 41.0009026 ], [ 28.9652375, 41.000881899999989 ], [ 28.9621977, 41.0009448 ], [ 28.961889709636793, 41.000994449753563 ], [ 28.96189387213499, 41.001134768367095 ] ] ] ] } },
{ "type": "Feature", "properties": { "grid_id": "G0410", "grid_row": 4, "grid_column": 10, "cell_area_m2": 103257.65895836073, "cell_area_km2": 0.10325765895836073, "image_count": 866, "eligible_street_length_m": 3983.715554402263, "covered_street_length_m": 2144.2080335894448, "uncovered_street_length_m": 1839.5075208128183, "street_coverage_pct": 53.824325665519879, "image_density_per_km2": 8386.7870793896236, "images_per_km_street": 217.38499854564517, "uncovered_street_km_per_km2": 17.814731995372959, "centroid_lon": 28.971154096090029, "centroid_lat": 41.002387389753927 }, "geometry": { "type": "Polygon", "coordinates": [ [ [ 28.967906175781568, 41.003403182220104 ], [ 28.973848147189216, 41.003301549477655 ], [ 28.973780105280198, 41.001021797610527 ], [ 28.9731913, 41.0010407 ], [ 28.9730812, 41.000984 ], [ 28.9708226, 41.00144370000001 ], [ 28.9691569, 41.001901 ], [ 28.9688149, 41.001992799999989 ], [ 28.9685655, 41.0020101 ], [ 28.9682384, 41.0020193 ], [ 28.967866182207988, 41.002059180359502 ], [ 28.967906175781568, 41.003403182220104 ] ] ] } },
{ "type": "Feature", "properties": { "grid_id": "G0411", "grid_row": 4, "grid_column": 11, "cell_area_m2": 108352.93184430405, "cell_area_km2": 0.10835293184430406, "image_count": 632, "eligible_street_length_m": 3521.1560885645044, "covered_street_length_m": 1950.7979186602472, "uncovered_street_length_m": 1570.3581699042572, "street_coverage_pct": 55.402199436593094, "image_density_per_km2": 5832.790947531922, "images_per_km_street": 179.48650502956036, "uncovered_street_km_per_km2": 14.492991958544854, "centroid_lon": 28.976512603085371, "centroid_lat": 41.002239539066572 }, "geometry": { "type": "Polygon", "coordinates": [ [ [ 28.973848147189216, 41.003301549477655 ], [ 28.979790088171033, 41.003199610651869 ], [ 28.979753138989743, 41.001965370812655 ], [ 28.9790859, 41.0018332 ], [ 28.9782781, 41.0017739 ], [ 28.9776515, 41.0017785 ], [ 28.9776073, 41.0017655 ], [ 28.9775895, 41.0016273 ], [ 28.9775912, 41.0015543 ], [ 28.9775924, 41.00150150000001 ], [ 28.9775935, 41.001480799999989 ], [ 28.9775963, 41.0014639 ], [ 28.9777317, 41.0014368 ], [ 28.9779215, 41.0014153 ], [ 28.9786159, 41.0013277 ], [ 28.97862, 41.0012347 ], [ 28.9786765, 41.0012079 ], [ 28.9783348, 41.0010699 ], [ 28.9767655, 41.0011334 ], [ 28.9761719, 41.0011585 ], [ 28.9753676, 41.0011924 ], [ 28.975374, 41.001056 ], [ 28.9753215, 41.0009723 ], [ 28.973780105280198, 41.001021797610527 ], [ 28.973848147189216, 41.003301549477655 ] ] ] } },
{ "type": "Feature", "properties": { "grid_id": "G0412", "grid_row": 4, "grid_column": 12, "cell_area_m2": 16717.455461092264, "cell_area_km2": 0.016717455461092264, "image_count": 117, "eligible_street_length_m": 527.07175881881199, "covered_street_length_m": 412.79359184853263, "uncovered_street_length_m": 114.27816697027936, "street_coverage_pct": 78.318290620165058, "image_density_per_km2": 6998.6727509041375, "images_per_km_street": 221.98115919206427, "uncovered_street_km_per_km2": 6.8358589162236534, "centroid_lon": 28.980640170672, "centroid_lat": 41.002721870243889 }, "geometry": { "type": "Polygon", "coordinates": [ [ [ 28.979790088171033, 41.003199610651869 ], [ 28.982138067380877, 41.003159244645161 ], [ 28.9820251, 41.0030343 ], [ 28.9813953, 41.0025894 ], [ 28.9806572, 41.0022166 ], [ 28.9801299, 41.00204 ], [ 28.979753138989743, 41.001965370812655 ], [ 28.979790088171033, 41.003199610651869 ] ] ] } },
{ "type": "Feature", "properties": { "grid_id": "G0502", "grid_row": 5, "grid_column": 2, "cell_area_m2": 199711.23940271995, "cell_area_km2": 0.19971123940271995, "image_count": 338, "eligible_street_length_m": 3908.7246794333773, "covered_street_length_m": 590.92960440061165, "uncovered_street_length_m": 3317.7950750327655, "street_coverage_pct": 15.118220209008809, "image_density_per_km2": 1692.4435550591081, "images_per_km_street": 86.473217665716405, "uncovered_street_km_per_km2": 16.612961218183592, "centroid_lon": 28.923991955063354, "centroid_lat": 41.006318529132983 }, "geometry": { "type": "Polygon", "coordinates": [ [ [ 28.926442674207081, 41.008607604217225 ], [ 28.926311531675857, 41.004106040707164 ], [ 28.921144129771989, 41.00419230933683 ], [ 28.9213246, 41.0050312 ], [ 28.9214833, 41.0060829 ], [ 28.9215812, 41.0065206 ], [ 28.9220005, 41.0081726 ], [ 28.9223285, 41.0082642 ], [ 28.922367125647224, 41.0086756700248 ], [ 28.926442674207081, 41.008607604217225 ] ] ] } },
{ "type": "Feature", "properties": { "grid_id": "G0503", "grid_row": 5, "grid_column": 3, "cell_area_m2": 250000.0, "cell_area_km2": 0.25, "image_count": 526, "eligible_street_length_m": 6622.1360414967221, "covered_street_length_m": 1245.7658507226356, "uncovered_street_length_m": 5376.370190774087, "street_coverage_pct": 18.812145249149399, "image_density_per_km2": 2104.0, "images_per_km_street": 79.430563900211652, "uncovered_street_km_per_km2": 21.505480763096347, "centroid_lon": 28.929348294839333, "centroid_lat": 41.006307112276296 }, "geometry": { "type": "Polygon", "coordinates": [ [ [ 28.926311531675857, 41.004106040707164 ], [ 28.926442674207081, 41.008607604217225 ], [ 28.93238525996712, 41.008508098499838 ], [ 28.932253713507258, 41.004006550673488 ], [ 28.926311531675857, 41.004106040707164 ] ] ] } },
{ "type": "Feature", "properties": { "grid_id": "G0504", "grid_row": 5, "grid_column": 4, "cell_area_m2": 250000.0, "cell_area_km2": 0.25, "image_count": 1761, "eligible_street_length_m": 6551.4702492925726, "covered_street_length_m": 2935.5763252375687, "uncovered_street_length_m": 3615.8939240550039, "street_coverage_pct": 44.807901334124999, "image_density_per_km2": 7044.0, "images_per_km_street": 268.7946267008009, "uncovered_street_km_per_km2": 14.463575696220015, "centroid_lon": 28.935290663739849, "centroid_lat": 41.006207461331122 }, "geometry": { "type": "Polygon", "coordinates": [ [ [ 28.932253713507258, 41.004006550673488 ], [ 28.93238525996712, 41.008508098499838 ], [ 28.938327815932933, 41.008408286619627 ], [ 28.938195865552107, 41.003906754525197 ], [ 28.932253713507258, 41.004006550673488 ] ] ] } },
{ "type": "Feature", "properties": { "grid_id": "G0505", "grid_row": 5, "grid_column": 5, "cell_area_m2": 250000.0, "cell_area_km2": 0.25, "image_count": 602, "eligible_street_length_m": 5450.7633503045963, "covered_street_length_m": 1513.8058468920142, "uncovered_street_length_m": 3936.9575034125819, "street_coverage_pct": 27.772364155332859, "image_density_per_km2": 2408.0, "images_per_km_street": 110.44324644297012, "uncovered_street_km_per_km2": 15.747830013650328, "centroid_lon": 28.941233002804317, "centroid_lat": 41.006107504249435 }, "geometry": { "type": "Polygon", "coordinates": [ [ [ 28.938195865552107, 41.003906754525197 ], [ 28.938327815932933, 41.008408286619627 ], [ 28.944270342013155, 41.008308168581031 ], [ 28.944137987719078, 41.003806652266711 ], [ 28.938195865552107, 41.003906754525197 ] ] ] } },
{ "type": "Feature", "properties": { "grid_id": "G0506", "grid_row": 5, "grid_column": 6, "cell_area_m2": 250000.0, "cell_area_km2": 0.25, "image_count": 1150, "eligible_street_length_m": 4606.9467814023255, "covered_street_length_m": 2404.8201754744878, "uncovered_street_length_m": 2202.1266059278378, "street_coverage_pct": 52.199868797756672, "image_density_per_km2": 4600.0, "images_per_km_street": 249.62302682601148, "uncovered_street_km_per_km2": 8.8085064237113517, "centroid_lon": 28.947175311941379, "centroid_lat": 41.006007241035682 }, "geometry": { "type": "Polygon", "coordinates": [ [ [ 28.944137987719078, 41.003806652266711 ], [ 28.944270342013155, 41.008308168581031 ], [ 28.950212838116435, 41.008207744388493 ], [ 28.950080079916834, 41.003706243902514 ], [ 28.944137987719078, 41.003806652266711 ] ] ] } },
{ "type": "Feature", "properties": { "grid_id": "G0507", "grid_row": 5, "grid_column": 7, "cell_area_m2": 250000.0, "cell_area_km2": 0.25, "image_count": 1586, "eligible_street_length_m": 7292.3395160148884, "covered_street_length_m": 3209.9914385187672, "uncovered_street_length_m": 4082.3480774961213, "street_coverage_pct": 44.018677839522212, "image_density_per_km2": 6344.0, "images_per_km_street": 217.48850235468959, "uncovered_street_km_per_km2": 16.329392309984485, "centroid_lon": 28.953117591059687, "centroid_lat": 41.005906671694333 }, "geometry": { "type": "Polygon", "coordinates": [ [ [ 28.950080079916834, 41.003706243902514 ], [ 28.950212838116435, 41.008207744388493 ], [ 28.956155304151423, 41.008107014046473 ], [ 28.956022142054056, 41.003605529437024 ], [ 28.950080079916834, 41.003706243902514 ] ] ] } },
{ "type": "Feature", "properties": { "grid_id": "G0508", "grid_row": 5, "grid_column": 8, "cell_area_m2": 250000.0, "cell_area_km2": 0.25, "image_count": 949, "eligible_street_length_m": 8123.4094561181555, "covered_street_length_m": 2407.9264845568409, "uncovered_street_length_m": 5715.4829715613141, "street_coverage_pct": 29.64182093201406, "image_density_per_km2": 3796.0, "images_per_km_street": 116.82286915689809, "uncovered_street_km_per_km2": 22.861931886245255, "centroid_lon": 28.959059840067912, "centroid_lat": 41.005805796229829 }, "geometry": { "type": "Polygon", "coordinates": [ [ [ 28.956022142054056, 41.003605529437024 ], [ 28.956155304151423, 41.008107014046473 ], [ 28.96209774002676, 41.008005977559435 ], [ 28.961964174039409, 41.003504508874727 ], [ 28.956022142054056, 41.003605529437024 ] ] ] } },
{ "type": "Feature", "properties": { "grid_id": "G0509", "grid_row": 5, "grid_column": 9, "cell_area_m2": 250000.0, "cell_area_km2": 0.25, "image_count": 466, "eligible_street_length_m": 9065.7584669958705, "covered_street_length_m": 1313.2437211814045, "uncovered_street_length_m": 7752.5147458144656, "street_coverage_pct": 14.485756773272776, "image_density_per_km2": 1864.0, "images_per_km_street": 51.402207735457011, "uncovered_street_km_per_km2": 31.010058983257863, "centroid_lon": 28.965002058874713, "centroid_lat": 41.005704614646646 }, "geometry": { "type": "Polygon", "coordinates": [ [ [ 28.961964174039409, 41.003504508874727 ], [ 28.96209774002676, 41.008005977559435 ], [ 28.968040145651106, 41.007904634931862 ], [ 28.967906175781568, 41.003403182220104 ], [ 28.961964174039409, 41.003504508874727 ] ] ] } },
{ "type": "Feature", "properties": { "grid_id": "G0510", "grid_row": 5, "grid_column": 10, "cell_area_m2": 250000.0, "cell_area_km2": 0.25, "image_count": 753, "eligible_street_length_m": 8270.5765196783996, "covered_street_length_m": 2140.1768653378986, "uncovered_street_length_m": 6130.399654340501, "street_coverage_pct": 25.876997331996378, "image_density_per_km2": 3012.0, "images_per_km_street": 91.045648173179629, "uncovered_street_km_per_km2": 24.521598617362002, "centroid_lon": 28.970944247388751, "centroid_lat": 41.005603126949296 }, "geometry": { "type": "Polygon", "coordinates": [ [ [ 28.967906175781568, 41.003403182220104 ], [ 28.968040145651106, 41.007904634931862 ], [ 28.973982520933109, 41.007802986168272 ], [ 28.973848147189216, 41.003301549477655 ], [ 28.967906175781568, 41.003403182220104 ] ] ] } },
{ "type": "Feature", "properties": { "grid_id": "G0511", "grid_row": 5, "grid_column": 11, "cell_area_m2": 250000.0, "cell_area_km2": 0.25, "image_count": 3381, "eligible_street_length_m": 5140.5576697989291, "covered_street_length_m": 3758.8637386791252, "uncovered_street_length_m": 1381.6939311198039, "street_coverage_pct": 73.121711303088091, "image_density_per_km2": 13524.0, "images_per_km_street": 657.71074213670795, "uncovered_street_km_per_km2": 5.5267757244792159, "centroid_lon": 28.976886405518698, "centroid_lat": 41.00550133314227 }, "geometry": { "type": "Polygon", "coordinates": [ [ [ 28.973848147189216, 41.003301549477655 ], [ 28.973982520933109, 41.007802986168272 ], [ 28.979924865781438, 41.00770103127315 ], [ 28.979790088171033, 41.003199610651869 ], [ 28.973848147189216, 41.003301549477655 ] ] ] } },
{ "type": "Feature", "properties": { "grid_id": "G0512", "grid_row": 5, "grid_column": 12, "cell_area_m2": 193858.01536878306, "cell_area_km2": 0.19385801536878305, "image_count": 722, "eligible_street_length_m": 4616.0518205838198, "covered_street_length_m": 2403.0658346485411, "uncovered_street_length_m": 2212.9859859352787, "street_coverage_pct": 52.058900724052336, "image_density_per_km2": 3724.3752786105515, "images_per_km_street": 156.41072242310406, "uncovered_street_km_per_km2": 11.415499027602422, "centroid_lon": 28.982355085004485, "centroid_lat": 41.005760568642209 }, "geometry": { "type": "Polygon", "coordinates": [ [ [ 28.979790088171033, 41.003199610651869 ], [ 28.979924865781438, 41.00770103127315 ], [ 28.985867180104744, 41.007598770251036 ], [ 28.985822423420881, 41.006108531812274 ], [ 28.9854959, 41.0057868 ], [ 28.9838445, 41.00483890000001 ], [ 28.9833866, 41.0045245 ], [ 28.9831409, 41.0042808 ], [ 28.9826005, 41.003670700000015 ], [ 28.982138067380877, 41.003159244645161 ], [ 28.979790088171033, 41.003199610651869 ] ] ] } },
{ "type": "Feature", "properties": { "grid_id": "G0513", "grid_row": 5, "grid_column": 13, "cell_area_m2": 6395.9474533712828, "cell_area_km2": 0.0063959474533712831, "image_count": 87, "eligible_street_length_m": 231.51009734733921, "covered_street_length_m": 231.51009734733921, "uncovered_street_length_m": 0.0, "street_coverage_pct": 100.0, "image_density_per_km2": 13602.363157962247, "images_per_km_street": 375.7935441989477, "uncovered_street_km_per_km2": 0.0, "centroid_lon": 28.986123838194128, "centroid_lat": 41.007032878370289 }, "geometry": { "type": "Polygon", "coordinates": [ [ [ 28.985867180104744, 41.007598770251036 ], [ 28.98660813503157, 41.007585997688487 ], [ 28.9863188, 41.0067466 ], [ 28.9860409, 41.0063238 ], [ 28.985822423420881, 41.006108531812274 ], [ 28.985867180104744, 41.007598770251036 ] ] ] } },
{ "type": "Feature", "properties": { "grid_id": "G0602", "grid_row": 6, "grid_column": 2, "cell_area_m2": 180894.93790940312, "cell_area_km2": 0.18089493790940311, "image_count": 134, "eligible_street_length_m": 4035.1163680335644, "covered_street_length_m": 814.4331896653872, "uncovered_street_length_m": 3220.6831783681773, "street_coverage_pct": 20.183635746353591, "image_density_per_km2": 740.7614693292893, "images_per_km_street": 33.208459875297798, "uncovered_street_km_per_km2": 17.804164204866691, "centroid_lon": 28.924355203054137, "centroid_lat": 41.0109379582982 }, "geometry": { "type": "Polygon", "coordinates": [ [ [ 28.926573846441169, 41.013109163854246 ], [ 28.926442674207081, 41.008607604217225 ], [ 28.922367125647224, 41.0086756700248 ], [ 28.922393, 41.0089513 ], [ 28.9221, 41.0089873 ], [ 28.9221021, 41.0093001 ], [ 28.9222845, 41.009306199999983 ], [ 28.9223402, 41.0116278 ], [ 28.9219022, 41.0127467 ], [ 28.921786073552415, 41.01318911690047 ], [ 28.926573846441169, 41.013109163854246 ] ] ] } },
{ "type": "Feature", "properties": { "grid_id": "G0603", "grid_row": 6, "grid_column": 3, "cell_area_m2": 250000.0, "cell_area_km2": 0.25, "image_count": 815, "eligible_street_length_m": 7270.7313759276049, "covered_street_length_m": 2301.9496945012083, "uncovered_street_length_m": 4968.781681426397, "street_coverage_pct": 31.660497073549553, "image_density_per_km2": 3260.0, "images_per_km_street": 112.09326240525861, "uncovered_street_km_per_km2": 19.875126725705588, "centroid_lon": 28.929479654209146, "centroid_lat": 41.01080866601351 }, "geometry": { "type": "Polygon", "coordinates": [ [ [ 28.926442674207081, 41.008607604217225 ], [ 28.926573846441169, 41.013109163854246 ], [ 28.932516836221215, 41.013009642451046 ], [ 28.93238525996712, 41.008508098499838 ], [ 28.926442674207081, 41.008607604217225 ] ] ] } },
{ "type": "Feature", "properties": { "grid_id": "G0604", "grid_row": 6, "grid_column": 4, "cell_area_m2": 250000.0, "cell_area_km2": 0.25, "image_count": 1469, "eligible_street_length_m": 6104.9359985386018, "covered_street_length_m": 2979.819296505138, "uncovered_street_length_m": 3125.1167020334638, "street_coverage_pct": 48.810000583436853, "image_density_per_km2": 5876.0, "images_per_km_street": 240.62496320217755, "uncovered_street_km_per_km2": 12.500466808133854, "centroid_lon": 28.935422427080152, "centroid_lat": 41.010708999359451 }, "geometry": { "type": "Polygon", "coordinates": [ [ [ 28.93238525996712, 41.008508098499838 ], [ 28.932516836221215, 41.013009642451046 ], [ 28.938459796199346, 41.01290981483681 ], [ 28.938327815932933, 41.008408286619627 ], [ 28.93238525996712, 41.008508098499838 ] ] ] } },
{ "type": "Feature", "properties": { "grid_id": "G0605", "grid_row": 6, "grid_column": 5, "cell_area_m2": 250000.0, "cell_area_km2": 0.25, "image_count": 1587, "eligible_street_length_m": 7379.6931096035551, "covered_street_length_m": 2638.2850501807943, "uncovered_street_length_m": 4741.4080594227607, "street_coverage_pct": 35.75060657668088, "image_density_per_km2": 6348.0, "images_per_km_street": 215.04959304266453, "uncovered_street_km_per_km2": 18.965632237691043, "centroid_lon": 28.941365170107403, "centroid_lat": 41.010609026520697 }, "geometry": { "type": "Polygon", "coordinates": [ [ [ 28.938327815932933, 41.008408286619627 ], [ 28.938459796199346, 41.01290981483681 ], [ 28.944402726284178, 41.012809681015966 ], [ 28.944270342013155, 41.008308168581031 ], [ 28.938327815932933, 41.008408286619627 ] ] ] } },
{ "type": "Feature", "properties": { "grid_id": "G0606", "grid_row": 6, "grid_column": 6, "cell_area_m2": 250000.0, "cell_area_km2": 0.25, "image_count": 2105, "eligible_street_length_m": 8660.5603365596126, "covered_street_length_m": 4904.8209923197901, "uncovered_street_length_m": 3755.7393442398225, "street_coverage_pct": 56.633991355208529, "image_density_per_km2": 8420.0, "images_per_km_street": 243.0558668489349, "uncovered_street_km_per_km2": 15.02295737695929, "centroid_lon": 28.947307883199528, "centroid_lat": 41.010508747501653 }, "geometry": { "type": "Polygon", "coordinates": [ [ [ 28.944270342013155, 41.008308168581031 ], [ 28.944402726284178, 41.012809681015966 ], [ 28.950345626384333, 41.012709240992969 ], [ 28.950212838116435, 41.008207744388493 ], [ 28.944270342013155, 41.008308168581031 ] ] ] } },
{ "type": "Feature", "properties": { "grid_id": "G0607", "grid_row": 6, "grid_column": 7, "cell_area_m2": 250000.0, "cell_area_km2": 0.25, "image_count": 1670, "eligible_street_length_m": 9562.863436803158, "covered_street_length_m": 3837.6014785305128, "uncovered_street_length_m": 5725.2619582726456, "street_coverage_pct": 40.130254958586065, "image_density_per_km2": 6680.0, "images_per_km_street": 174.63388565948998, "uncovered_street_km_per_km2": 22.901047833090583, "centroid_lon": 28.953250566265154, "centroid_lat": 41.010408162306817 }, "geometry": { "type": "Polygon", "coordinates": [ [ [ 28.950212838116435, 41.008207744388493 ], [ 28.950345626384333, 41.012709240992969 ], [ 28.956288496408433, 41.01260849477228 ], [ 28.956155304151423, 41.008107014046473 ], [ 28.950212838116435, 41.008207744388493 ] ] ] } },
{ "type": "Feature", "properties": { "grid_id": "G0608", "grid_row": 6, "grid_column": 8, "cell_area_m2": 250000.0, "cell_area_km2": 0.25, "image_count": 1182, "eligible_street_length_m": 6661.9417324393498, "covered_street_length_m": 3460.1195958733006, "uncovered_street_length_m": 3201.8221365660493, "street_coverage_pct": 51.938604911909614, "image_density_per_km2": 4728.0, "images_per_km_street": 177.4257487489607, "uncovered_street_km_per_km2": 12.807288546264196, "centroid_lon": 28.959193219212931, "centroid_lat": 41.010307270940601 }, "geometry": { "type": "Polygon", "coordinates": [ [ [ 28.956155304151423, 41.008107014046473 ], [ 28.956288496408433, 41.01260849477228 ], [ 28.962231336265109, 41.012507442358363 ], [ 28.96209774002676, 41.008005977559435 ], [ 28.956155304151423, 41.008107014046473 ] ] ] } },
{ "type": "Feature", "properties": { "grid_id": "G0609", "grid_row": 6, "grid_column": 9, "cell_area_m2": 250000.0, "cell_area_km2": 0.25, "image_count": 1459, "eligible_street_length_m": 8655.8178681627105, "covered_street_length_m": 2647.1275734004439, "uncovered_street_length_m": 6008.6902947622666, "street_coverage_pct": 30.582061842323917, "image_density_per_km2": 5836.0, "images_per_km_street": 168.55715106557437, "uncovered_street_km_per_km2": 24.034761179049067, "centroid_lon": 28.965135841951483, "centroid_lat": 41.010206073407502 }, "geometry": { "type": "Polygon", "coordinates": [ [ [ 28.96209774002676, 41.008005977559435 ], [ 28.962231336265109, 41.012507442358363 ], [ 28.968174145862978, 41.012406083755707 ], [ 28.968040145651106, 41.007904634931862 ], [ 28.96209774002676, 41.008005977559435 ] ] ] } },
{ "type": "Feature", "properties": { "grid_id": "G0610", "grid_row": 6, "grid_column": 10, "cell_area_m2": 250000.0, "cell_area_km2": 0.25, "image_count": 1330, "eligible_street_length_m": 7943.4891985621507, "covered_street_length_m": 1387.0700677832463, "uncovered_street_length_m": 6556.4191307789042, "street_coverage_pct": 17.461722841321667, "image_density_per_km2": 5320.0, "images_per_km_street": 167.43271964676973, "uncovered_street_km_per_km2": 26.225676523115617, "centroid_lon": 28.971078434389469, "centroid_lat": 41.010104569712034 }, "geometry": { "type": "Polygon", "coordinates": [ [ [ 28.968040145651106, 41.007904634931862 ], [ 28.968174145862978, 41.012406083755707 ], [ 28.974116925110685, 41.012304418968803 ], [ 28.973982520933109, 41.007802986168272 ], [ 28.968040145651106, 41.007904634931862 ] ] ] } },
{ "type": "Feature", "properties": { "grid_id": "G0611", "grid_row": 6, "grid_column": 11, "cell_area_m2": 250000.0, "cell_area_km2": 0.25, "image_count": 4773, "eligible_street_length_m": 5323.5896387228422, "covered_street_length_m": 3515.8701915742963, "uncovered_street_length_m": 1807.7194471485459, "street_coverage_pct": 66.043223279279132, "image_density_per_km2": 19092.0, "images_per_km_street": 896.57549208565001, "uncovered_street_km_per_km2": 7.2308777885941833, "centroid_lon": 28.97702099643552, "centroid_lat": 41.010002759858679 }, "geometry": { "type": "Polygon", "coordinates": [ [ [ 28.973982520933109, 41.007802986168272 ], [ 28.974116925110685, 41.012304418968803 ], [ 28.980059673916855, 41.012202448002171 ], [ 28.979924865781438, 41.00770103127315 ], [ 28.973982520933109, 41.007802986168272 ] ] ] } },
{ "type": "Feature", "properties": { "grid_id": "G0612", "grid_row": 6, "grid_column": 12, "cell_area_m2": 250000.0, "cell_area_km2": 0.25, "image_count": 1664, "eligible_street_length_m": 1415.4524498818946, "covered_street_length_m": 1030.5674190072421, "uncovered_street_length_m": 384.88503087465256, "street_coverage_pct": 72.808339064532518, "image_density_per_km2": 6656.0, "images_per_km_street": 1175.5958316641752, "uncovered_street_km_per_km2": 1.5395401234986101, "centroid_lon": 28.982963527998294, "centroid_lat": 41.009900643851957 }, "geometry": { "type": "Polygon", "coordinates": [ [ [ 28.979924865781438, 41.00770103127315 ], [ 28.980059673916855, 41.012202448002171 ], [ 28.986002392190137, 41.01210017086035 ], [ 28.985867180104744, 41.007598770251036 ], [ 28.979924865781438, 41.00770103127315 ] ] ] } },
{ "type": "Feature", "properties": { "grid_id": "G0613", "grid_row": 6, "grid_column": 13, "cell_area_m2": 65953.818886402325, "cell_area_km2": 0.065953818886402324, "image_count": 328, "eligible_street_length_m": 1033.8803341727985, "covered_street_length_m": 1033.8803341727985, "uncovered_street_length_m": 0.0, "street_coverage_pct": 100.0, "image_density_per_km2": 4973.1767703238129, "images_per_km_street": 317.25141600882745, "uncovered_street_km_per_km2": 0.0, "centroid_lon": 28.986791669809453, "centroid_lat": 41.010188671954765 }, "geometry": { "type": "Polygon", "coordinates": [ [ [ 28.985867180104744, 41.007598770251036 ], [ 28.986002392190137, 41.01210017086035 ], [ 28.988064830539649, 41.012064603578075 ], [ 28.9878568, 41.0102134 ], [ 28.9868789, 41.0083715 ], [ 28.98660813503157, 41.007585997688487 ], [ 28.985867180104744, 41.007598770251036 ] ] ] } },
{ "type": "Feature", "properties": { "grid_id": "G0702", "grid_row": 7, "grid_column": 2, "cell_area_m2": 183600.42684515452, "cell_area_km2": 0.18360042684515451, "image_count": 387, "eligible_street_length_m": 4530.3835924977466, "covered_street_length_m": 1091.0107387681744, "uncovered_street_length_m": 3439.3728537295719, "street_coverage_pct": 24.082083039830739, "image_density_per_km2": 2107.8382368162424, "images_per_km_street": 85.423230086049827, "uncovered_street_km_per_km2": 18.732924061392737, "centroid_lon": 28.924440086543434, "centroid_lat": 41.015294710970842 }, "geometry": { "type": "Polygon", "coordinates": [ [ [ 28.926705048385791, 41.017610719618062 ], [ 28.926573846441169, 41.013109163854246 ], [ 28.921786073552415, 41.01318911690047 ], [ 28.9217529, 41.0133155 ], [ 28.922184, 41.0155277 ], [ 28.9224141, 41.016118 ], [ 28.9229188, 41.017331199999987 ], [ 28.923091759020448, 41.017671083306738 ], [ 28.926705048385791, 41.017610719618062 ] ] ] } },
{ "type": "Feature", "properties": { "grid_id": "G0703", "grid_row": 7, "grid_column": 3, "cell_area_m2": 250000.0, "cell_area_km2": 0.25, "image_count": 1621, "eligible_street_length_m": 6817.0824772730639, "covered_street_length_m": 3443.0279459798676, "uncovered_street_length_m": 3374.0545312931963, "street_coverage_pct": 50.505886608506025, "image_density_per_km2": 6484.0, "images_per_km_street": 237.78500632845865, "uncovered_street_km_per_km2": 13.496218125172785, "centroid_lon": 28.929611043331352, "centroid_lat": 41.015310215876532 }, "geometry": { "type": "Polygon", "coordinates": [ [ [ 28.926573846441169, 41.013109163854246 ], [ 28.926705048385791, 41.017610719618062 ], [ 28.93264844227723, 41.017511182526938 ], [ 28.932516836221215, 41.013009642451046 ], [ 28.926573846441169, 41.013109163854246 ] ] ] } },
{ "type": "Feature", "properties": { "grid_id": "G0704", "grid_row": 7, "grid_column": 4, "cell_area_m2": 250000.0, "cell_area_km2": 0.25, "image_count": 2064, "eligible_street_length_m": 6947.7661429102282, "covered_street_length_m": 3245.9353710354608, "uncovered_street_length_m": 3701.8307718747674, "street_coverage_pct": 46.719122438335667, "image_density_per_km2": 8256.0, "images_per_km_street": 297.07390225075238, "uncovered_street_km_per_km2": 14.80732308749907, "centroid_lon": 28.935554220264216, "centroid_lat": 41.0152105335115 }, "geometry": { "type": "Polygon", "coordinates": [ [ [ 28.932516836221215, 41.013009642451046 ], [ 28.93264844227723, 41.017511182526938 ], [ 28.938591806359057, 41.017411339176547 ], [ 28.938459796199346, 41.01290981483681 ], [ 28.932516836221215, 41.013009642451046 ] ] ] } },
{ "type": "Feature", "properties": { "grid_id": "G0705", "grid_row": 7, "grid_column": 5, "cell_area_m2": 250000.0, "cell_area_km2": 0.25, "image_count": 1399, "eligible_street_length_m": 8130.4294980842169, "covered_street_length_m": 3635.9909879424285, "uncovered_street_length_m": 4494.4385101417884, "street_coverage_pct": 44.720773838567588, "image_density_per_km2": 5596.0, "images_per_km_street": 172.06963055637442, "uncovered_street_km_per_km2": 17.977754040567152, "centroid_lon": 28.941497367345615, "centroid_lat": 41.015110544913547 }, "geometry": { "type": "Polygon", "coordinates": [ [ [ 28.938459796199346, 41.01290981483681 ], [ 28.938591806359057, 41.017411339176547 ], [ 28.94453514053988, 41.017311189571345 ], [ 28.944402726284178, 41.012809681015966 ], [ 28.938459796199346, 41.01290981483681 ] ] ] } },
{ "type": "Feature", "properties": { "grid_id": "G0706", "grid_row": 7, "grid_column": 6, "cell_area_m2": 250000.0, "cell_area_km2": 0.25, "image_count": 1114, "eligible_street_length_m": 7601.3214498644711, "covered_street_length_m": 3746.9535295219453, "uncovered_street_length_m": 3854.3679203425258, "street_coverage_pct": 49.293449227683325, "image_density_per_km2": 4456.0, "images_per_km_street": 146.55346538724029, "uncovered_street_km_per_km2": 15.417471681370104, "centroid_lon": 28.947440484484172, "centroid_lat": 41.015010250087101 }, "geometry": { "type": "Polygon", "coordinates": [ [ [ 28.944402726284178, 41.012809681015966 ], [ 28.94453514053988, 41.017311189571345 ], [ 28.950478444728283, 41.017210733715771 ], [ 28.950345626384333, 41.012709240992969 ], [ 28.944402726284178, 41.012809681015966 ] ] ] } },
{ "type": "Feature", "properties": { "grid_id": "G0707", "grid_row": 7, "grid_column": 7, "cell_area_m2": 250000.0, "cell_area_km2": 0.25, "image_count": 2285, "eligible_street_length_m": 8669.8872426871476, "covered_street_length_m": 4788.0363594869368, "uncovered_street_length_m": 3881.8508832002108, "street_coverage_pct": 55.226051106091795, "image_density_per_km2": 9140.0, "images_per_km_street": 263.55590748049758, "uncovered_street_km_per_km2": 15.527403532800843, "centroid_lon": 28.953383571588486, "centroid_lat": 41.014909649036632 }, "geometry": { "type": "Polygon", "coordinates": [ [ [ 28.950345626384333, 41.012709240992969 ], [ 28.950478444728283, 41.017210733715771 ], [ 28.956421718832878, 41.017109971614268 ], [ 28.956288496408433, 41.01260849477228 ], [ 28.950345626384333, 41.012709240992969 ] ] ] } },
{ "type": "Feature", "properties": { "grid_id": "G0708", "grid_row": 7, "grid_column": 8, "cell_area_m2": 250000.0, "cell_area_km2": 0.25, "image_count": 830, "eligible_street_length_m": 5886.1613961088096, "covered_street_length_m": 2064.5815707972242, "uncovered_street_length_m": 3821.5798253115854, "street_coverage_pct": 35.075177723839957, "image_density_per_km2": 3320.0, "images_per_km_street": 141.00870569887732, "uncovered_street_km_per_km2": 15.286319301246342, "centroid_lon": 28.959326628567162, "centroid_lat": 41.014808741766565 }, "geometry": { "type": "Polygon", "coordinates": [ [ [ 28.956288496408433, 41.01260849477228 ], [ 28.956421718832878, 41.017109971614268 ], [ 28.962364962762251, 41.017008903271325 ], [ 28.962231336265109, 41.012507442358363 ], [ 28.956288496408433, 41.01260849477228 ] ] ] } },
{ "type": "Feature", "properties": { "grid_id": "G0709", "grid_row": 7, "grid_column": 9, "cell_area_m2": 250000.0, "cell_area_km2": 0.25, "image_count": 5023, "eligible_street_length_m": 5544.7397814457117, "covered_street_length_m": 3678.4718623186363, "uncovered_street_length_m": 1866.2679191270754, "street_coverage_pct": 66.341650055929719, "image_density_per_km2": 20092.0, "images_per_km_street": 905.90364886164673, "uncovered_street_km_per_km2": 7.4650716765083018, "centroid_lon": 28.965269655328839, "centroid_lat": 41.01470752828142 }, "geometry": { "type": "Polygon", "coordinates": [ [ [ 28.962231336265109, 41.012507442358363 ], [ 28.962364962762251, 41.017008903271325 ], [ 28.968308176425019, 41.016907528691426 ], [ 28.968174145862978, 41.012406083755707 ], [ 28.962231336265109, 41.012507442358363 ] ] ] } },
{ "type": "Feature", "properties": { "grid_id": "G0710", "grid_row": 7, "grid_column": 10, "cell_area_m2": 250000.0, "cell_area_km2": 0.25, "image_count": 3230, "eligible_street_length_m": 7187.7083303221743, "covered_street_length_m": 3376.733943372979, "uncovered_street_length_m": 3810.9743869491954, "street_coverage_pct": 46.979284469958777, "image_density_per_km2": 12920.0, "images_per_km_street": 449.37827907872571, "uncovered_street_km_per_km2": 15.243897547796781, "centroid_lon": 28.971212651782114, "centroid_lat": 41.014606008585673 }, "geometry": { "type": "Polygon", "coordinates": [ [ [ 28.968174145862978, 41.012406083755707 ], [ 28.968308176425019, 41.016907528691426 ], [ 28.974251359729788, 41.01680584787907 ], [ 28.974116925110685, 41.012304418968803 ], [ 28.968174145862978, 41.012406083755707 ] ] ] } },
{ "type": "Feature", "properties": { "grid_id": "G0711", "grid_row": 7, "grid_column": 11, "cell_area_m2": 249019.56128766396, "cell_area_km2": 0.24901956128766398, "image_count": 4480, "eligible_street_length_m": 6351.4895238471809, "covered_street_length_m": 4579.4215778209309, "uncovered_street_length_m": 1772.06794602625, "street_coverage_pct": 72.099962703663806, "image_density_per_km2": 17990.554544527389, "images_per_km_street": 705.34635744567913, "uncovered_street_km_per_km2": 7.1161796963379178, "centroid_lon": 28.97715006486796, "centroid_lat": 41.014495504689258 }, "geometry": { "type": "Polygon", "coordinates": [ [ [ 28.980059673916855, 41.012202448002171 ], [ 28.974116925110685, 41.012304418968803 ], [ 28.974251359729788, 41.01680584787907 ], [ 28.976845419037556, 41.01676137043863 ], [ 28.9769008, 41.0166667 ], [ 28.977157602411793, 41.016756013838986 ], [ 28.977644606541251, 41.016747655886661 ], [ 28.977657, 41.0166908 ], [ 28.978103619564543, 41.016739776431407 ], [ 28.978240619805756, 41.016737424319452 ], [ 28.9782477, 41.0166706 ], [ 28.9791481, 41.016680199999989 ], [ 28.980194137649384, 41.01669134551593 ], [ 28.980059673916855, 41.012202448002171 ] ] ] } },
{ "type": "Feature", "properties": { "grid_id": "G0712", "grid_row": 7, "grid_column": 12, "cell_area_m2": 249860.94663266532, "cell_area_km2": 0.24986094663266531, "image_count": 3200, "eligible_street_length_m": 1325.6951281771653, "covered_street_length_m": 1273.659187546227, "uncovered_street_length_m": 52.035940630938285, "street_coverage_pct": 96.074818446192239, "image_density_per_km2": 12807.123494591176, "images_per_km_street": 2413.8279850209674, "uncovered_street_km_per_km2": 0.20825959931801291, "centroid_lon": 28.983099822330185, "centroid_lat": 41.014400782898107 }, "geometry": { "type": "Polygon", "coordinates": [ [ [ 28.986137634899777, 41.016601567575066 ], [ 28.986002392190137, 41.01210017086035 ], [ 28.980059673916855, 41.012202448002171 ], [ 28.980194137649384, 41.01669134551593 ], [ 28.9804434, 41.016694 ], [ 28.980642854645293, 41.016696154654419 ], [ 28.980704366051075, 41.016695097249084 ], [ 28.9807305, 41.016669899999989 ], [ 28.9811155, 41.0166514 ], [ 28.981112139393513, 41.016688086633437 ], [ 28.986137634899777, 41.016601567575066 ] ] ] } },
{ "type": "Feature", "properties": { "grid_id": "G0713", "grid_row": 7, "grid_column": 13, "cell_area_m2": 63802.974406070178, "cell_area_km2": 0.063802974406070176, "image_count": 267, "eligible_street_length_m": 938.21785227962312, "covered_street_length_m": 938.21785227962312, "uncovered_street_length_m": 0.0, "street_coverage_pct": 100.00000000000001, "image_density_per_km2": 4184.7578813598038, "images_per_km_street": 284.58209290226154, "uncovered_street_km_per_km2": 0.0, "centroid_lon": 28.986874684954884, "centroid_lat": 41.013982715507304 }, "geometry": { "type": "Polygon", "coordinates": [ [ [ 28.986002392190137, 41.01210017086035 ], [ 28.986137634899777, 41.016601567575066 ], [ 28.986962022461377, 41.016587353956666 ], [ 28.987007, 41.0163774 ], [ 28.9871311, 41.015894099999983 ], [ 28.9871992, 41.0156244 ], [ 28.9874677, 41.014719 ], [ 28.9876254, 41.0141551 ], [ 28.9876177, 41.0140438 ], [ 28.9880682, 41.0130039 ], [ 28.9881084, 41.0124523 ], [ 28.988064830539649, 41.012064603578075 ], [ 28.986002392190137, 41.01210017086035 ] ] ] } },
{ "type": "Feature", "properties": { "grid_id": "G0802", "grid_row": 8, "grid_column": 2, "cell_area_m2": 88317.496659582292, "cell_area_km2": 0.088317496659582287, "image_count": 767, "eligible_street_length_m": 1661.561028216865, "covered_street_length_m": 784.34354951304681, "uncovered_street_length_m": 877.21747870381819, "street_coverage_pct": 47.205220644515208, "image_density_per_km2": 8684.5758655998088, "images_per_km_street": 461.61410082127423, "uncovered_street_km_per_km2": 9.9325446472405385, "centroid_lon": 28.92548824986541, "centroid_lat": 41.019297220169982 }, "geometry": { "type": "Polygon", "coordinates": [ [ [ 28.926836280048605, 41.022112271508476 ], [ 28.926705048385791, 41.017610719618062 ], [ 28.923091759020448, 41.017671083306738 ], [ 28.9232168, 41.0179168 ], [ 28.9233041, 41.0178825 ], [ 28.9241248, 41.019400099999984 ], [ 28.9242622, 41.0193455 ], [ 28.9244064, 41.0195883 ], [ 28.9245796, 41.0198446 ], [ 28.9252078, 41.0208116 ], [ 28.926146, 41.0215371 ], [ 28.9260524, 41.021608400000012 ], [ 28.9261921, 41.021786 ], [ 28.926555729192017, 41.022116962877291 ], [ 28.926836280048605, 41.022112271508476 ] ] ] } },
{ "type": "Feature", "properties": { "grid_id": "G0803", "grid_row": 8, "grid_column": 3, "cell_area_m2": 250000.0, "cell_area_km2": 0.25, "image_count": 1249, "eligible_street_length_m": 7648.312609923486, "covered_street_length_m": 2557.1924853176843, "uncovered_street_length_m": 5091.1201246058017, "street_coverage_pct": 33.434727576378009, "image_density_per_km2": 4996.0, "images_per_km_street": 163.3039944496326, "uncovered_street_km_per_km2": 20.364480498423205, "centroid_lon": 28.929742462213618, "centroid_lat": 41.019811761865213 }, "geometry": { "type": "Polygon", "coordinates": [ [ [ 28.926705048385791, 41.017610719618062 ], [ 28.926836280048605, 41.022112271508476 ], [ 28.932780078142844, 41.022012718727311 ], [ 28.93264844227723, 41.017511182526938 ], [ 28.926705048385791, 41.017610719618062 ] ] ] } },
{ "type": "Feature", "properties": { "grid_id": "G0804", "grid_row": 8, "grid_column": 4, "cell_area_m2": 250000.0, "cell_area_km2": 0.25, "image_count": 564, "eligible_street_length_m": 5552.7787586014429, "covered_street_length_m": 1382.7681962048848, "uncovered_street_length_m": 4170.0105623965583, "street_coverage_pct": 24.902274272370924, "image_density_per_km2": 2256.0, "images_per_km_street": 101.57076745158356, "uncovered_street_km_per_km2": 16.680042249586233, "centroid_lon": 28.935686043299732, "centroid_lat": 41.019712063787082 }, "geometry": { "type": "Polygon", "coordinates": [ [ [ 28.93264844227723, 41.017511182526938 ], [ 28.932780078142844, 41.022012718727311 ], [ 28.938723846419787, 41.021912859638668 ], [ 28.938591806359057, 41.017411339176547 ], [ 28.93264844227723, 41.017511182526938 ] ] ] } },
{ "type": "Feature", "properties": { "grid_id": "G0805", "grid_row": 8, "grid_column": 5, "cell_area_m2": 250000.0, "cell_area_km2": 0.25, "image_count": 1308, "eligible_street_length_m": 6950.5917128642677, "covered_street_length_m": 3291.5964421975359, "uncovered_street_length_m": 3658.9952706667318, "street_coverage_pct": 47.357067976031388, "image_density_per_km2": 5232.0, "images_per_km_street": 188.18541701696165, "uncovered_street_km_per_km2": 14.635981082666927, "centroid_lon": 28.941629594526681, "centroid_lat": 41.019612059427814 }, "geometry": { "type": "Polygon", "coordinates": [ [ [ 28.938591806359057, 41.017411339176547 ], [ 28.938723846419787, 41.021912859638668 ], [ 28.944667584787997, 41.021812694246975 ], [ 28.94453514053988, 41.017311189571345 ], [ 28.938591806359057, 41.017411339176547 ] ] ] } },
{ "type": "Feature", "properties": { "grid_id": "G0806", "grid_row": 8, "grid_column": 6, "cell_area_m2": 250000.0, "cell_area_km2": 0.25, "image_count": 1783, "eligible_street_length_m": 7157.6627218133381, "covered_street_length_m": 3293.4759700516461, "uncovered_street_length_m": 3864.186751761692, "street_coverage_pct": 46.013288108904767, "image_density_per_km2": 7132.0, "images_per_km_street": 249.10366264761507, "uncovered_street_km_per_km2": 15.456747007046769, "centroid_lon": 28.947573115803056, "centroid_lat": 41.019511748791828 }, "geometry": { "type": "Polygon", "coordinates": [ [ [ 28.94453514053988, 41.017311189571345 ], [ 28.944667584787997, 41.021812694246975 ], [ 28.950611293156054, 41.021712222556673 ], [ 28.950478444728283, 41.017210733715771 ], [ 28.94453514053988, 41.017311189571345 ] ] ] } },
{ "type": "Feature", "properties": { "grid_id": "G0807", "grid_row": 8, "grid_column": 7, "cell_area_m2": 250000.0, "cell_area_km2": 0.25, "image_count": 453, "eligible_street_length_m": 8913.8407821239034, "covered_street_length_m": 1515.5685876382097, "uncovered_street_length_m": 7398.2721944856939, "street_coverage_pct": 17.002419323862934, "image_density_per_km2": 1812.0, "images_per_km_street": 50.819844225674352, "uncovered_street_km_per_km2": 29.593088777942775, "centroid_lon": 28.953516607037439, "centroid_lat": 41.019411131883587 }, "geometry": { "type": "Polygon", "coordinates": [ [ [ 28.950478444728283, 41.017210733715771 ], [ 28.950611293156054, 41.021712222556673 ], [ 28.956554971432528, 41.021611444572244 ], [ 28.956421718832878, 41.017109971614268 ], [ 28.950478444728283, 41.017210733715771 ] ] ] } },
{ "type": "Feature", "properties": { "grid_id": "G0808", "grid_row": 8, "grid_column": 8, "cell_area_m2": 250000.0, "cell_area_km2": 0.25, "image_count": 1144, "eligible_street_length_m": 7242.1724710409289, "covered_street_length_m": 2448.6697692723883, "uncovered_street_length_m": 4793.5027017685406, "street_coverage_pct": 33.811260075119932, "image_density_per_km2": 4576.0, "images_per_km_street": 157.96365035139394, "uncovered_street_km_per_km2": 19.174010807074161, "centroid_lon": 28.959460068138412, "centroid_lat": 41.019310208707545 }, "geometry": { "type": "Polygon", "coordinates": [ [ [ 28.956421718832878, 41.017109971614268 ], [ 28.956554971432528, 41.021611444572244 ], [ 28.962498619526002, 41.021510360298137 ], [ 28.962364962762251, 41.017008903271325 ], [ 28.956421718832878, 41.017109971614268 ] ] ] } },
{ "type": "Feature", "properties": { "grid_id": "G0809", "grid_row": 8, "grid_column": 9, "cell_area_m2": 195036.90647538909, "cell_area_km2": 0.1950369064753891, "image_count": 4561, "eligible_street_length_m": 6548.8019143998908, "covered_street_length_m": 3635.2716049758087, "uncovered_street_length_m": 2913.5303094240821, "street_coverage_pct": 55.510483482213132, "image_density_per_km2": 23385.317591547904, "images_per_km_street": 696.46327062832745, "uncovered_street_km_per_km2": 14.938353781732733, "centroid_lon": 28.965030361788163, "centroid_lat": 41.018805154125388 }, "geometry": { "type": "Polygon", "coordinates": [ [ [ 28.968308176425019, 41.016907528691426 ], [ 28.962364962762251, 41.017008903271325 ], [ 28.962498619526002, 41.021510360298137 ], [ 28.963611734129017, 41.021491395327295 ], [ 28.9638362, 41.0212987 ], [ 28.9641516, 41.0210907 ], [ 28.964458, 41.0209573 ], [ 28.964651, 41.020913700000015 ], [ 28.9648395, 41.0208404 ], [ 28.9650711, 41.0207172 ], [ 28.9651525, 41.0207495 ], [ 28.9654848, 41.020759 ], [ 28.9658247, 41.0205445 ], [ 28.9658557, 41.0205555 ], [ 28.9659485, 41.0205195 ], [ 28.9660151, 41.020449 ], [ 28.9660181, 41.0203753 ], [ 28.965954, 41.019830399999989 ], [ 28.9660629, 41.019668399999986 ], [ 28.9662934, 41.0195448 ], [ 28.9663726, 41.0195265 ], [ 28.9670166, 41.0196395 ], [ 28.9672869, 41.0197322 ], [ 28.9674211, 41.0195647 ], [ 28.9675863, 41.0195051 ], [ 28.9677931, 41.0194656 ], [ 28.968383735335944, 41.019444739792924 ], [ 28.968308176425019, 41.016907528691426 ] ] ] } },
{ "type": "Feature", "properties": { "grid_id": "G0810", "grid_row": 8, "grid_column": 10, "cell_area_m2": 99840.636962222663, "cell_area_km2": 0.099840636962222659, "image_count": 5838, "eligible_street_length_m": 4118.8320070394848, "covered_street_length_m": 3510.3635587754302, "uncovered_street_length_m": 608.46844826405459, "street_coverage_pct": 85.227160340015743, "image_density_per_km2": 58473.184643332766, "images_per_km_street": 1417.3921126237462, "uncovered_street_km_per_km2": 6.0943966983532434, "centroid_lon": 28.970841554570796, "centroid_lat": 41.017842244711751 }, "geometry": { "type": "Polygon", "coordinates": [ [ [ 28.974251359729788, 41.01680584787907 ], [ 28.968308176425019, 41.016907528691426 ], [ 28.968383735335944, 41.019444739792924 ], [ 28.9687529, 41.0194317 ], [ 28.9687577, 41.0195143 ], [ 28.9688726, 41.019512699999986 ], [ 28.9689666, 41.0195209 ], [ 28.968972, 41.019433499999984 ], [ 28.96899, 41.0194416 ], [ 28.9691454, 41.0195119 ], [ 28.9693205, 41.0195583 ], [ 28.9696293, 41.0196342 ], [ 28.9701334, 41.0189213 ], [ 28.9701878, 41.0188964 ], [ 28.970211, 41.0189254 ], [ 28.9704378, 41.0188274 ], [ 28.9706437, 41.0187402 ], [ 28.9706182, 41.018701 ], [ 28.9711971, 41.0184027 ], [ 28.9712713, 41.0183672 ], [ 28.9713607, 41.0183204 ], [ 28.9716063, 41.0183391 ], [ 28.9716407, 41.0183258 ], [ 28.9716619, 41.0183176 ], [ 28.9716762, 41.0183121 ], [ 28.9718821, 41.0182325 ], [ 28.9719779, 41.0181955 ], [ 28.9720883, 41.0181528 ], [ 28.9721209, 41.0181402 ], [ 28.9721375, 41.0181338 ], [ 28.9730086, 41.0182529 ], [ 28.9729889, 41.0183223 ], [ 28.973161, 41.0183472 ], [ 28.9732003, 41.0183532 ], [ 28.973217, 41.0182785 ], [ 28.973915, 41.018002499999987 ], [ 28.9739589, 41.0180697 ], [ 28.974141, 41.0179964 ], [ 28.974285329656897, 41.017943140059018 ], [ 28.974284992548412, 41.017931854196213 ], [ 28.9742404, 41.017868900000011 ], [ 28.97428260641912, 41.017851970148499 ], [ 28.974251359729788, 41.01680584787907 ] ] ] } },
{ "type": "Feature", "properties": { "grid_id": "G0811", "grid_row": 8, "grid_column": 11, "cell_area_m2": 14575.210877833399, "cell_area_km2": 0.014575210877833398, "image_count": 722, "eligible_street_length_m": 403.23117400955658, "covered_street_length_m": 394.05463008911357, "uncovered_street_length_m": 9.1765439204430095, "street_coverage_pct": 97.724247401510297, "image_density_per_km2": 49536.161504054005, "images_per_km_street": 1790.5361651995897, "uncovered_street_km_per_km2": 0.62959939292535982, "centroid_lon": 28.97526746119593, "centroid_lat": 41.017138743874575 }, "geometry": { "type": "MultiPolygon", "coordinates": [ [ [ [ 28.974285329656897, 41.017943140059018 ], [ 28.9742914, 41.0179409 ], [ 28.974284992548412, 41.017931854196213 ], [ 28.974285329656897, 41.017943140059018 ] ] ], [ [ [ 28.974251359729788, 41.01680584787907 ], [ 28.97428260641912, 41.017851970148499 ], [ 28.9747744, 41.0176547 ], [ 28.9749868, 41.0175808 ], [ 28.9750441, 41.0175998 ], [ 28.9750682, 41.0176228 ], [ 28.9751818, 41.0175781 ], [ 28.975408, 41.0174899 ], [ 28.9753774, 41.0174283 ], [ 28.9760948, 41.0171504 ], [ 28.9761216, 41.0171859 ], [ 28.976271, 41.0171316 ], [ 28.9764553, 41.017063899999982 ], [ 28.976422, 41.017018 ], [ 28.9767598, 41.0168916 ], [ 28.9768107, 41.0168154 ], [ 28.976833, 41.0167826 ], [ 28.976845419037556, 41.01676137043863 ], [ 28.974251359729788, 41.01680584787907 ] ] ], [ [ [ 28.977157602411793, 41.016756013838986 ], [ 28.9776087, 41.0169129 ], [ 28.9776393, 41.016772 ], [ 28.977644606541251, 41.016747655886661 ], [ 28.977157602411793, 41.016756013838986 ] ] ], [ [ [ 28.978103619564543, 41.016739776431407 ], [ 28.9782388, 41.0167546 ], [ 28.978240619805756, 41.016737424319452 ], [ 28.978103619564543, 41.016739776431407 ] ] ] ] } },
{ "type": "Feature", "properties": { "grid_id": "G0812", "grid_row": 8, "grid_column": 12, "cell_area_m2": 32227.523979559224, "cell_area_km2": 0.032227523979559226, "image_count": 150, "eligible_street_length_m": 265.63802824389944, "covered_street_length_m": 198.712879863832, "uncovered_street_length_m": 66.925148380067441, "street_coverage_pct": 74.805885730103697, "image_density_per_km2": 4654.4065903151504, "images_per_km_street": 564.67818629595956, "uncovered_street_km_per_km2": 2.0766456778533677, "centroid_lon": 28.9843578657003, "centroid_lat": 41.017074565579605 }, "geometry": { "type": "MultiPolygon", "coordinates": [ [ [ [ 28.986137634899777, 41.016601567575066 ], [ 28.981112139393513, 41.016688086633437 ], [ 28.9811095, 41.0167169 ], [ 28.9817812, 41.0166992 ], [ 28.9818747, 41.0170115 ], [ 28.9824112, 41.0169193 ], [ 28.9824207, 41.0169488 ], [ 28.982431, 41.0169822 ], [ 28.9824409, 41.017018899999982 ], [ 28.9824574, 41.0170762 ], [ 28.9825361, 41.0170739 ], [ 28.9825649, 41.0170469 ], [ 28.9826424, 41.0170739 ], [ 28.9825979, 41.0171467 ], [ 28.9832049, 41.0173357 ], [ 28.9834758, 41.01742 ], [ 28.9836959, 41.0174885 ], [ 28.9839225, 41.017559 ], [ 28.9853311, 41.0177639 ], [ 28.9853485, 41.0176519 ], [ 28.9859219, 41.0175584 ], [ 28.9859534, 41.0175515 ], [ 28.986164666925333, 41.017501174491052 ], [ 28.986137634899777, 41.016601567575066 ] ] ], [ [ [ 28.980642854645293, 41.016696154654419 ], [ 28.9807026, 41.0166968 ], [ 28.980704366051075, 41.016695097249084 ], [ 28.980642854645293, 41.016696154654419 ] ] ] ] } },
{ "type": "Feature", "properties": { "grid_id": "G0813", "grid_row": 8, "grid_column": 13, "cell_area_m2": 5397.0182441404813, "cell_area_km2": 0.0053970182441404812, "image_count": 45, "eligible_street_length_m": 0.0, "covered_street_length_m": 0.0, "uncovered_street_length_m": 0.0, "street_coverage_pct": null, "image_density_per_km2": 8337.9373506577085, "images_per_km_street": null, "uncovered_street_km_per_km2": 0.0, "centroid_lon": 28.986492013003673, "centroid_lat": 41.016985484502982 }, "geometry": { "type": "Polygon", "coordinates": [ [ [ 28.986137634899777, 41.016601567575066 ], [ 28.986164666925333, 41.017501174491052 ], [ 28.9863711, 41.017452 ], [ 28.9865039, 41.0174645 ], [ 28.9866906, 41.0173553 ], [ 28.986736, 41.0171866 ], [ 28.9868034, 41.0171094 ], [ 28.9868379, 41.0170652 ], [ 28.9868537, 41.0170306 ], [ 28.9869299, 41.0167373 ], [ 28.986962022461377, 41.016587353956666 ], [ 28.986137634899777, 41.016601567575066 ] ] ] } },
{ "type": "Feature", "properties": { "grid_id": "G0902", "grid_row": 9, "grid_column": 2, "cell_area_m2": 350.11296567456122, "cell_area_km2": 0.00035011296567456123, "image_count": 0, "eligible_street_length_m": 0.0, "covered_street_length_m": 0.0, "uncovered_street_length_m": 0.0, "street_coverage_pct": null, "image_density_per_km2": 0.0, "images_per_km_street": null, "uncovered_street_km_per_km2": 0.0, "centroid_lon": 28.926745359065297, "centroid_lat": 41.022202876902732 }, "geometry": { "type": "Polygon", "coordinates": [ [ [ 28.926836280048605, 41.022112271508476 ], [ 28.926555729192017, 41.022116962877291 ], [ 28.926844068345503, 41.022379396075785 ], [ 28.926836280048605, 41.022112271508476 ] ] ] } },
{ "type": "Feature", "properties": { "grid_id": "G0903", "grid_row": 9, "grid_column": 3, "cell_area_m2": 153746.19432692672, "cell_area_km2": 0.15374619432692671, "image_count": 465, "eligible_street_length_m": 3938.7145821047875, "covered_street_length_m": 1516.6488450868028, "uncovered_street_length_m": 2422.0657370179847, "street_coverage_pct": 38.506188084243703, "image_density_per_km2": 3024.4651065067769, "images_per_km_street": 118.05882104600514, "uncovered_street_km_per_km2": 15.753663026401107, "centroid_lon": 28.930680489694037, "centroid_lat": 41.023756469245996 }, "geometry": { "type": "Polygon", "coordinates": [ [ [ 28.932911743825766, 41.026514251052035 ], [ 28.932780078142844, 41.022012718727311 ], [ 28.926836280048605, 41.022112271508476 ], [ 28.926844068345503, 41.022379396075785 ], [ 28.9291116, 41.0244431 ], [ 28.929299, 41.0245906 ], [ 28.9295982, 41.024385100000011 ], [ 28.9299073, 41.0247441 ], [ 28.9317858, 41.0265262 ], [ 28.931792039779371, 41.026533030132697 ], [ 28.932911743825766, 41.026514251052035 ] ] ] } },
{ "type": "Feature", "properties": { "grid_id": "G0904", "grid_row": 9, "grid_column": 4, "cell_area_m2": 250000.0, "cell_area_km2": 0.25, "image_count": 574, "eligible_street_length_m": 6657.3682462708648, "covered_street_length_m": 2993.1811498751554, "uncovered_street_length_m": 3664.1870963957094, "street_coverage_pct": 44.960426389989628, "image_density_per_km2": 2296.0, "images_per_km_street": 86.220256829194781, "uncovered_street_km_per_km2": 14.656748385582837, "centroid_lon": 28.935817896194415, "centroid_lat": 41.024213590186037 }, "geometry": { "type": "Polygon", "coordinates": [ [ [ 28.932780078142844, 41.022012718727311 ], [ 28.932911743825766, 41.026514251052035 ], [ 28.938855916389247, 41.026414376223009 ], [ 28.938723846419787, 41.021912859638668 ], [ 28.932780078142844, 41.022012718727311 ] ] ] } },
{ "type": "Feature", "properties": { "grid_id": "G0905", "grid_row": 9, "grid_column": 5, "cell_area_m2": 250000.0, "cell_area_km2": 0.25, "image_count": 1824, "eligible_street_length_m": 9388.1251417461408, "covered_street_length_m": 3699.4085767031252, "uncovered_street_length_m": 5688.7165650430161, "street_coverage_pct": 39.40519028930472, "image_density_per_km2": 7296.0, "images_per_km_street": 194.28799387102609, "uncovered_street_km_per_km2": 22.754866260172065, "centroid_lon": 28.941761851658327, "centroid_lat": 41.024113570063321 }, "geometry": { "type": "Polygon", "coordinates": [ [ [ 28.938723846419787, 41.021912859638668 ], [ 28.938855916389247, 41.026414376223009 ], [ 28.944800059036272, 41.026314195042701 ], [ 28.944667584787997, 41.021812694246975 ], [ 28.938723846419787, 41.021912859638668 ] ] ] } },
{ "type": "Feature", "properties": { "grid_id": "G0906", "grid_row": 9, "grid_column": 6, "cell_area_m2": 250000.0, "cell_area_km2": 0.25, "image_count": 921, "eligible_street_length_m": 7015.0564086530294, "covered_street_length_m": 1446.5579884098956, "uncovered_street_length_m": 5568.4984202431333, "street_coverage_pct": 20.620760606081159, "image_density_per_km2": 3684.0, "images_per_km_street": 131.28903694401546, "uncovered_street_km_per_km2": 22.273993680972534, "centroid_lon": 28.947705777163932, "centroid_lat": 41.02401324361567 }, "geometry": { "type": "Polygon", "coordinates": [ [ [ 28.944667584787997, 41.021812694246975 ], [ 28.944800059036272, 41.026314195042701 ], [ 28.950744171675403, 41.026213707515559 ], [ 28.950611293156054, 41.021712222556673 ], [ 28.944667584787997, 41.021812694246975 ] ] ] } },
{ "type": "Feature", "properties": { "grid_id": "G0907", "grid_row": 9, "grid_column": 7, "cell_area_m2": 250000.0, "cell_area_km2": 0.25, "image_count": 726, "eligible_street_length_m": 8086.5696733822351, "covered_street_length_m": 1562.4679110704624, "uncovered_street_length_m": 6524.1017623117732, "street_coverage_pct": 19.321764038137012, "image_density_per_km2": 2904.0, "images_per_km_street": 89.778488199972202, "uncovered_street_km_per_km2": 26.096407049247095, "centroid_lon": 28.953649672619793, "centroid_lat": 41.023912610847525 }, "geometry": { "type": "Polygon", "coordinates": [ [ [ 28.950611293156054, 41.021712222556673 ], [ 28.950744171675403, 41.026213707515559 ], [ 28.956688254215184, 41.026112913646038 ], [ 28.956554971432528, 41.021611444572244 ], [ 28.950611293156054, 41.021712222556673 ] ] ] } },
{ "type": "Feature", "properties": { "grid_id": "G0908", "grid_row": 9, "grid_column": 8, "cell_area_m2": 196198.56192994083, "cell_area_km2": 0.19619856192994084, "image_count": 4252, "eligible_street_length_m": 7991.7426462498943, "covered_street_length_m": 4967.7067763985488, "uncovered_street_length_m": 3024.0358698513455, "street_coverage_pct": 62.160494854393654, "image_density_per_km2": 21671.922353428447, "images_per_km_street": 532.04916477074505, "uncovered_street_km_per_km2": 15.413139831938102, "centroid_lon": 28.959093452191802, "centroid_lat": 41.023502839922983 }, "geometry": { "type": "Polygon", "coordinates": [ [ [ 28.962498619526002, 41.021510360298137 ], [ 28.956554971432528, 41.021611444572244 ], [ 28.956688254215184, 41.026112913646038 ], [ 28.95963154871411, 41.026062890581528 ], [ 28.959596, 41.02592090000001 ], [ 28.9596525, 41.0259078 ], [ 28.9596168, 41.0257357 ], [ 28.9597353, 41.0254602 ], [ 28.9597796, 41.0254767 ], [ 28.9598773, 41.0252654 ], [ 28.9598903, 41.0252269 ], [ 28.9601566, 41.0249792 ], [ 28.960137, 41.0249726 ], [ 28.9604556, 41.0246173 ], [ 28.9604146, 41.0245878 ], [ 28.9610607, 41.0239509 ], [ 28.9612507, 41.023763099999989 ], [ 28.961367, 41.0236851 ], [ 28.9618827, 41.023444599999983 ], [ 28.9622398, 41.0232975 ], [ 28.962546, 41.023125199999988 ], [ 28.96254656419903, 41.0231248506566 ], [ 28.962498619526002, 41.021510360298137 ] ] ] } },
{ "type": "Feature", "properties": { "grid_id": "G0909", "grid_row": 9, "grid_column": 9, "cell_area_m2": 12538.987544270924, "cell_area_km2": 0.012538987544270923, "image_count": 38, "eligible_street_length_m": 34.923656771254912, "covered_street_length_m": 34.923656771254912, "uncovered_street_length_m": 0.0, "street_coverage_pct": 100.0, "image_density_per_km2": 3030.5477109563158, "images_per_km_street": 1088.0876607193429, "uncovered_street_km_per_km2": 0.0, "centroid_lon": 28.962982204637832, "centroid_lat": 41.022189074055163 }, "geometry": { "type": "Polygon", "coordinates": [ [ [ 28.962498619526002, 41.021510360298137 ], [ 28.96254656419903, 41.0231248506566 ], [ 28.9626836, 41.02304 ], [ 28.9627738, 41.0229213 ], [ 28.962861, 41.022953 ], [ 28.9629124, 41.022933 ], [ 28.9629255, 41.0229501 ], [ 28.9631485, 41.0228728 ], [ 28.9634814, 41.0225326 ], [ 28.9635223, 41.0224741 ], [ 28.9635497, 41.02226730000001 ], [ 28.9635213, 41.0221691 ], [ 28.9634455, 41.0220647 ], [ 28.9634556, 41.0217497 ], [ 28.9636087, 41.021494 ], [ 28.963611734129017, 41.021491395327295 ], [ 28.962498619526002, 41.021510360298137 ] ] ] } },
{ "type": "Feature", "properties": { "grid_id": "G1003", "grid_row": 10, "grid_column": 3, "cell_area_m2": 6139.4600230323358, "cell_area_km2": 0.0061394600230323358, "image_count": 0, "eligible_street_length_m": 109.61151325809274, "covered_street_length_m": 2.5836601531522199, "uncovered_street_length_m": 107.02785310494052, "street_coverage_pct": 2.3571065450658444, "image_density_per_km2": 0.0, "images_per_km_street": 0.0, "uncovered_street_km_per_km2": 17.432779544686809, "centroid_lon": 28.932534815356433, "centroid_lat": 41.026897615416644 }, "geometry": { "type": "Polygon", "coordinates": [ [ [ 28.932911743825766, 41.026514251052035 ], [ 28.931792039779371, 41.026533030132697 ], [ 28.932271, 41.027057299999989 ], [ 28.932943769688841, 41.02760903203388 ], [ 28.932911743825766, 41.026514251052035 ] ] ] } },
{ "type": "Feature", "properties": { "grid_id": "G1004", "grid_row": 10, "grid_column": 4, "cell_area_m2": 196479.33877649673, "cell_area_km2": 0.19647933877649673, "image_count": 2322, "eligible_street_length_m": 7022.252974335147, "covered_street_length_m": 3461.3364910890473, "uncovered_street_length_m": 3560.9164832460997, "street_coverage_pct": 49.290968350748706, "image_density_per_km2": 11818.03651447224, "images_per_km_street": 330.66310890342749, "uncovered_street_km_per_km2": 18.123618012053612, "centroid_lon": 28.93646361970341, "centroid_lat": 41.028424458810505 }, "geometry": { "type": "Polygon", "coordinates": [ [ [ 28.938988016275154, 41.030915888929378 ], [ 28.938855916389247, 41.026414376223009 ], [ 28.932911743825766, 41.026514251052035 ], [ 28.932943769688841, 41.02760903203388 ], [ 28.9330336, 41.0276827 ], [ 28.9335027, 41.028089199999989 ], [ 28.934378, 41.0288529 ], [ 28.934935, 41.0293353 ], [ 28.9354455, 41.0298938 ], [ 28.9355167, 41.0300513 ], [ 28.9354625, 41.030305699999985 ], [ 28.935873145210227, 41.03096826839738 ], [ 28.938988016275154, 41.030915888929378 ] ] ] } },
{ "type": "Feature", "properties": { "grid_id": "G1005", "grid_row": 10, "grid_column": 5, "cell_area_m2": 250000.0, "cell_area_km2": 0.25, "image_count": 1327, "eligible_street_length_m": 8779.4361229471415, "covered_street_length_m": 2653.7518033002461, "uncovered_street_length_m": 6125.6843196468953, "street_coverage_pct": 30.226904850575036, "image_density_per_km2": 5308.0, "images_per_km_street": 151.14865936908754, "uncovered_street_km_per_km2": 24.502737278587581, "centroid_lon": 28.941894138748278, "centroid_lat": 41.028615076819882 }, "geometry": { "type": "Polygon", "coordinates": [ [ [ 28.938855916389247, 41.026414376223009 ], [ 28.938988016275154, 41.030915888929378 ], [ 28.944932563292447, 41.030815691958331 ], [ 28.944800059036272, 41.026314195042701 ], [ 28.938855916389247, 41.026414376223009 ] ] ] } },
{ "type": "Feature", "properties": { "grid_id": "G1006", "grid_row": 10, "grid_column": 6, "cell_area_m2": 250000.0, "cell_area_km2": 0.25, "image_count": 1014, "eligible_street_length_m": 8693.4018085206117, "covered_street_length_m": 1679.6844835706981, "uncovered_street_length_m": 7013.7173249499137, "street_coverage_pct": 19.321371777897106, "image_density_per_km2": 4056.0, "images_per_km_street": 116.64018554924658, "uncovered_street_km_per_km2": 28.054869299799655, "centroid_lon": 28.947838468574556, "centroid_lat": 41.028514734558449 }, "geometry": { "type": "Polygon", "coordinates": [ [ [ 28.944800059036272, 41.026314195042701 ], [ 28.944932563292447, 41.030815691958331 ], [ 28.950877080294095, 41.030715188592204 ], [ 28.950744171675403, 41.026213707515559 ], [ 28.944800059036272, 41.026314195042701 ] ] ] } },
{ "type": "Feature", "properties": { "grid_id": "G1007", "grid_row": 10, "grid_column": 7, "cell_area_m2": 183451.43306057065, "cell_area_km2": 0.18345143306057066, "image_count": 2627, "eligible_street_length_m": 6206.0725153692383, "covered_street_length_m": 3065.5252846006751, "uncovered_street_length_m": 3140.5472307685632, "street_coverage_pct": 49.395576300614458, "image_density_per_km2": 14319.866332865529, "images_per_km_street": 423.29508614252842, "uncovered_street_km_per_km2": 17.119229751296846, "centroid_lon": 28.953361044021328, "centroid_lat": 41.027934089934732 }, "geometry": { "type": "Polygon", "coordinates": [ [ [ 28.956688254215184, 41.026112913646038 ], [ 28.950744171675403, 41.026213707515559 ], [ 28.950877080294095, 41.030715188592204 ], [ 28.952742032635534, 41.030683594780967 ], [ 28.9527501, 41.0306771 ], [ 28.9527724, 41.0306527 ], [ 28.952814, 41.0305708 ], [ 28.9529678, 41.0303922 ], [ 28.9529884, 41.0302852 ], [ 28.952735, 41.030068199999988 ], [ 28.9526473, 41.0299896 ], [ 28.952623, 41.0299433 ], [ 28.9526139, 41.0298943 ], [ 28.9526325, 41.0298353 ], [ 28.9526532, 41.0298095 ], [ 28.953034, 41.029335 ], [ 28.9532249, 41.02919030000001 ], [ 28.9534118, 41.0291388 ], [ 28.9539711, 41.0290442 ], [ 28.9543123, 41.0289155 ], [ 28.9545665, 41.0288452 ], [ 28.9551284, 41.0287307 ], [ 28.9553792, 41.0286929 ], [ 28.9555857, 41.0286938 ], [ 28.9559171, 41.0286134 ], [ 28.9559915, 41.0286081 ], [ 28.9563364, 41.0285516 ], [ 28.956662, 41.028549 ], [ 28.956760715856475, 41.028559790890746 ], [ 28.956688254215184, 41.026112913646038 ] ] ] } },
{ "type": "Feature", "properties": { "grid_id": "G1008", "grid_row": 10, "grid_column": 8, "cell_area_m2": 37516.094667995538, "cell_area_km2": 0.037516094667995541, "image_count": 993, "eligible_street_length_m": 1243.7746846556252, "covered_street_length_m": 795.98367107158992, "uncovered_street_length_m": 447.79101358403523, "street_coverage_pct": 63.997416967204231, "image_density_per_km2": 26468.639894096294, "images_per_km_street": 798.37611446074789, "uncovered_street_km_per_km2": 11.935970882546032, "centroid_lon": 28.957742842619218, "centroid_lat": 41.026971425681459 }, "geometry": { "type": "Polygon", "coordinates": [ [ [ 28.956688254215184, 41.026112913646038 ], [ 28.956760715856475, 41.028559790890746 ], [ 28.9569584, 41.0285814 ], [ 28.9571205, 41.0286118 ], [ 28.957197, 41.028587799999983 ], [ 28.9573208, 41.0285103 ], [ 28.9574603, 41.02841 ], [ 28.9575124, 41.0283342 ], [ 28.9575122, 41.0282441 ], [ 28.9574996, 41.0281902 ], [ 28.957452, 41.0281416 ], [ 28.9575418, 41.02796330000001 ], [ 28.9577177, 41.0276676 ], [ 28.9577987, 41.0275633 ], [ 28.9578344, 41.0275354 ], [ 28.9578654, 41.0275273 ], [ 28.9578964, 41.0275588 ], [ 28.9582498, 41.0272888 ], [ 28.9582394, 41.0272724 ], [ 28.9582682, 41.0272262 ], [ 28.9583436, 41.027190899999987 ], [ 28.9584578, 41.0271141 ], [ 28.9585766, 41.026991 ], [ 28.9587248, 41.0269222 ], [ 28.9588484, 41.0268524 ], [ 28.95895, 41.0267833 ], [ 28.9591279, 41.0266679 ], [ 28.9592158, 41.0266309 ], [ 28.9593521, 41.0265902 ], [ 28.9594321, 41.0265211 ], [ 28.9594585, 41.0265174 ], [ 28.9595475, 41.0263838 ], [ 28.9596095, 41.0263111 ], [ 28.9596986, 41.0262778 ], [ 28.9597327, 41.026288799999989 ], [ 28.9597449, 41.0262192 ], [ 28.9596655, 41.0261985 ], [ 28.95963154871411, 41.026062890581528 ], [ 28.956688254215184, 41.026112913646038 ] ] ] } },
{ "type": "Feature", "properties": { "grid_id": "G1104", "grid_row": 11, "grid_column": 4, "cell_area_m2": 31051.042402386316, "cell_area_km2": 0.031051042402386316, "image_count": 878, "eligible_street_length_m": 1328.3322889277702, "covered_street_length_m": 1002.1329094944256, "uncovered_street_length_m": 326.19937943334457, "street_coverage_pct": 75.442938325571177, "image_density_per_km2": 28276.023349622701, "images_per_km_street": 660.97918970916646, "uncovered_street_km_per_km2": 10.505263404885747, "centroid_lon": 28.937864251004466, "centroid_lat": 41.03158262696725 }, "geometry": { "type": "Polygon", "coordinates": [ [ [ 28.938988016275154, 41.030915888929378 ], [ 28.935873145210227, 41.03096826839738 ], [ 28.9359626, 41.0311126 ], [ 28.9360791, 41.0312895 ], [ 28.9361332, 41.0313447 ], [ 28.937651, 41.0321139 ], [ 28.939043859011885, 41.032818510842958 ], [ 28.938988016275154, 41.030915888929378 ] ] ] } },
{ "type": "Feature", "properties": { "grid_id": "G1105", "grid_row": 11, "grid_column": 5, "cell_area_m2": 232526.94621297406, "cell_area_km2": 0.23252694621297407, "image_count": 869, "eligible_street_length_m": 7833.8093472579312, "covered_street_length_m": 1766.260493286117, "uncovered_street_length_m": 6067.5488539718144, "street_coverage_pct": 22.546636189255246, "image_density_per_km2": 3737.2012756064541, "images_per_km_street": 110.9294292825975, "uncovered_street_km_per_km2": 26.093960088455631, "centroid_lon": 28.94220906364087, "centroid_lat": 41.033055805866191 }, "geometry": { "type": "Polygon", "coordinates": [ [ [ 28.945065097564267, 41.035317184993673 ], [ 28.944932563292447, 41.030815691958331 ], [ 28.938988016275154, 41.030915888929378 ], [ 28.939043859011885, 41.032818510842958 ], [ 28.9400293, 41.033317 ], [ 28.9402465, 41.0336192 ], [ 28.9403179, 41.0345293 ], [ 28.9397611, 41.0346128 ], [ 28.9393923, 41.0347881 ], [ 28.9391074, 41.0349707 ], [ 28.93921762454616, 41.035415757059461 ], [ 28.945065097564267, 41.035317184993673 ] ] ] } },
{ "type": "Feature", "properties": { "grid_id": "G1106", "grid_row": 11, "grid_column": 6, "cell_area_m2": 204832.49274429656, "cell_area_km2": 0.20483249274429655, "image_count": 2596, "eligible_street_length_m": 6697.4530112647708, "covered_street_length_m": 2971.3605482824278, "uncovered_street_length_m": 3726.092462982343, "street_coverage_pct": 44.365530348398892, "image_density_per_km2": 12673.770480549329, "images_per_km_street": 387.6100355812369, "uncovered_street_km_per_km2": 18.19092475544798, "centroid_lon": 28.947469969346237, "centroid_lat": 41.032867202540658 }, "geometry": { "type": "Polygon", "coordinates": [ [ [ 28.950877080294095, 41.030715188592204 ], [ 28.944932563292447, 41.030815691958331 ], [ 28.945065097564267, 41.035317184993673 ], [ 28.949221328067853, 41.035246942001258 ], [ 28.9491945, 41.035179 ], [ 28.9491751, 41.0350059 ], [ 28.9491771, 41.0349555 ], [ 28.9492926, 41.034931 ], [ 28.9492827, 41.0348915 ], [ 28.9493421, 41.0348791 ], [ 28.9493238, 41.0348188 ], [ 28.9492988, 41.0347364 ], [ 28.9490982, 41.0347727 ], [ 28.9490861, 41.0345609 ], [ 28.9491634, 41.0343012 ], [ 28.9491023, 41.0342451 ], [ 28.9492514, 41.0338878 ], [ 28.9495473, 41.0337375 ], [ 28.9496266, 41.0337872 ], [ 28.9500233, 41.0335129 ], [ 28.950161, 41.0333067 ], [ 28.9497399, 41.0331372 ], [ 28.9497316, 41.0331549 ], [ 28.9496919, 41.0330931 ], [ 28.9497808, 41.0330162 ], [ 28.9498476, 41.032487899999985 ], [ 28.9497859, 41.032425699999983 ], [ 28.9497618, 41.0323937 ], [ 28.9497438, 41.0323595 ], [ 28.9501349, 41.0319849 ], [ 28.9505269, 41.0315251 ], [ 28.9505876, 41.031463 ], [ 28.950894118832117, 41.031292192712002 ], [ 28.950877080294095, 41.030715188592204 ] ] ] } },
{ "type": "Feature", "properties": { "grid_id": "G1107", "grid_row": 11, "grid_column": 7, "cell_area_m2": 6181.3836715573507, "cell_area_km2": 0.0061813836715573509, "image_count": 16, "eligible_street_length_m": 38.053297020583216, "covered_street_length_m": 38.053297020583216, "uncovered_street_length_m": 0.0, "street_coverage_pct": 100.0, "image_density_per_km2": 2588.4172298868039, "images_per_km_street": 420.4629099903097, "uncovered_street_km_per_km2": 0.0, "centroid_lon": 28.951652354454854, "centroid_lat": 41.030901413780249 }, "geometry": { "type": "Polygon", "coordinates": [ [ [ 28.950877080294095, 41.030715188592204 ], [ 28.950894118832117, 41.031292192712002 ], [ 28.95104, 41.0312109 ], [ 28.9512106, 41.0312027 ], [ 28.9516557, 41.0310635 ], [ 28.9519963, 41.0309529 ], [ 28.9522571, 41.031077 ], [ 28.9523287, 41.0310872 ], [ 28.9524403, 41.0310105 ], [ 28.9524711, 41.0309807 ], [ 28.952489, 41.0309603 ], [ 28.9525473, 41.030906899999984 ], [ 28.9526135, 41.0308557 ], [ 28.9525685, 41.0308233 ], [ 28.952742032635534, 41.030683594780967 ], [ 28.950877080294095, 41.030715188592204 ] ] ] } },
{ "type": "Feature", "properties": { "grid_id": "G1205", "grid_row": 12, "grid_column": 5, "cell_area_m2": 210862.43811412869, "cell_area_km2": 0.21086243811412869, "image_count": 3307, "eligible_street_length_m": 7175.331584372514, "covered_street_length_m": 3456.6467918554677, "uncovered_street_length_m": 3718.6847925170464, "street_coverage_pct": 48.174035599746475, "image_density_per_km2": 15683.210483462663, "images_per_km_street": 460.88462409214202, "uncovered_street_km_per_km2": 17.635596106046723, "centroid_lon": 28.942508529825222, "centroid_lat": 41.037382845164807 }, "geometry": { "type": "Polygon", "coordinates": [ [ [ 28.945197661859488, 41.039818674148592 ], [ 28.945065097564267, 41.035317184993673 ], [ 28.93921762454616, 41.035415757059461 ], [ 28.9394073, 41.0361816 ], [ 28.9393886, 41.0364593 ], [ 28.9393748, 41.036665 ], [ 28.9392217, 41.0371418 ], [ 28.9391852, 41.0373909 ], [ 28.9393804, 41.0378873 ], [ 28.9401441, 41.038171 ], [ 28.9404606, 41.0382353 ], [ 28.9411335, 41.0388417 ], [ 28.9413422, 41.0390597 ], [ 28.9414326, 41.0390353 ], [ 28.9417027, 41.0397306 ], [ 28.9421769, 41.0398192 ], [ 28.9424535, 41.0398427 ], [ 28.942471674029598, 41.039864667763034 ], [ 28.942766946822683, 41.039859688956277 ], [ 28.9433461, 41.039518799999989 ], [ 28.943665062601063, 41.039844540526296 ], [ 28.945197661859488, 41.039818674148592 ] ] ] } },
{ "type": "Feature", "properties": { "grid_id": "G1206", "grid_row": 12, "grid_column": 6, "cell_area_m2": 71479.124037665853, "cell_area_km2": 0.071479124037665848, "image_count": 1092, "eligible_street_length_m": 1069.2917694166292, "covered_street_length_m": 803.0082607928349, "uncovered_street_length_m": 266.28350862379432, "street_coverage_pct": 75.097207680830664, "image_density_per_km2": 15277.187776176044, "images_per_km_street": 1021.2367019300631, "uncovered_street_km_per_km2": 3.7253325667991746, "centroid_lon": 28.946349584641091, "centroid_lat": 41.036700059930475 }, "geometry": { "type": "Polygon", "coordinates": [ [ [ 28.945065097564267, 41.035317184993673 ], [ 28.945197661859488, 41.039818674148592 ], [ 28.945285792641364, 41.039817186104848 ], [ 28.9455174, 41.0394408 ], [ 28.945967, 41.0387288 ], [ 28.9460579, 41.0385848 ], [ 28.9462944, 41.0381695 ], [ 28.9463477, 41.038075099999986 ], [ 28.9463132, 41.0378976 ], [ 28.9463991, 41.037771399999983 ], [ 28.9465682, 41.037577 ], [ 28.9465801, 41.0375429 ], [ 28.9465945, 41.0374992 ], [ 28.9466188, 41.0374302 ], [ 28.9467538, 41.037162 ], [ 28.946942, 41.0368212 ], [ 28.9471305, 41.0365973 ], [ 28.9473571, 41.0363734 ], [ 28.9479428, 41.036123499999988 ], [ 28.9481775, 41.036062 ], [ 28.9483335, 41.036050299999985 ], [ 28.948486, 41.0360084 ], [ 28.9485607, 41.0359744 ], [ 28.9484968, 41.0358381 ], [ 28.9488153, 41.0357457 ], [ 28.948866, 41.0357172 ], [ 28.948843, 41.03569730000001 ], [ 28.949069, 41.0354811 ], [ 28.9492422, 41.0352998 ], [ 28.949221328067853, 41.035246942001258 ], [ 28.945065097564267, 41.035317184993673 ] ] ] } },
{ "type": "Feature", "properties": { "grid_id": "G1305", "grid_row": 13, "grid_column": 5, "cell_area_m2": 7987.79472268067, "cell_area_km2": 0.00798779472268067, "image_count": 29, "eligible_street_length_m": 17.697765455621539, "covered_street_length_m": 17.697765455621539, "uncovered_street_length_m": 0.0, "street_coverage_pct": 100.0, "image_density_per_km2": 3630.5389668636508, "images_per_km_street": 1638.6249480319793, "uncovered_street_km_per_km2": 0.0, "centroid_lon": 28.944495537352768, "centroid_lat": 41.040178769643383 }, "geometry": { "type": "MultiPolygon", "coordinates": [ [ [ [ 28.945197661859488, 41.039818674148592 ], [ 28.943665062601063, 41.039844540526296 ], [ 28.944566, 41.0407646 ], [ 28.9448171, 41.04086 ], [ 28.9448547, 41.0408106 ], [ 28.9448996, 41.0407799 ], [ 28.9447463, 41.0406939 ], [ 28.945201645554761, 41.03995393275077 ], [ 28.945197661859488, 41.039818674148592 ] ] ], [ [ [ 28.942471674029598, 41.039864667763034 ], [ 28.9425656, 41.0399782 ], [ 28.942766946822683, 41.039859688956277 ], [ 28.942471674029598, 41.039864667763034 ] ] ] ] } },
{ "type": "Feature", "properties": { "grid_id": "G1306", "grid_row": 13, "grid_column": 6, "cell_area_m2": 55.676222351897763, "cell_area_km2": 5.5676222351897765e-05, "image_count": 0, "eligible_street_length_m": 0.0, "covered_street_length_m": 0.0, "uncovered_street_length_m": 0.0, "street_coverage_pct": null, "image_density_per_km2": 0.0, "images_per_km_street": null, "uncovered_street_km_per_km2": 0.0, "centroid_lon": 28.945228366702946, "centroid_lat": 41.039863264341847 }, "geometry": { "type": "Polygon", "coordinates": [ [ [ 28.945197661859488, 41.039818674148592 ], [ 28.945201645554761, 41.03995393275077 ], [ 28.945285792641364, 41.039817186104848 ], [ 28.945197661859488, 41.039818674148592 ] ] ] } }
]
}
